Name,Type,Address,Borough,Latitude,Longitudinal 
133rd Street Pharmacy Inc,Pharmacy,1473 Amsterdam Avenue,Manhattan,40.82115345,-73.95346277
168 Pharmacy,Pharmacy,135-05 38th Avenue,Queens,40.7650362,-73.83283371
2020 Medical Center,Primary Care,219-15 Linden Blvd ,Queens ,40.69604505,-73.74040216
7th Ave Pharmacy Inc,Pharmacy,5412 7th Avenue,Brooklyn,40.64164076,-74.00858022
86 BoBo Pharmacy Inc. ,Pharmacy,2170  86th Street ,Brooklyn ,40.60211964,-73.99445331
86 Pharmacy Inc,Pharmacy,2042 86th St ,Brooklyn,40.60426708,-73.99744222
8th Ave Medical Office ,Primary Care,775 57th St ,Brooklyn,40.6383685,-74.00805434
99 Pharmacy ,Pharmacy,7402 Grand Ave,Queens ,40.73050189,-73.88773052
Abbydek Family Medical Practice ,Primary Care,105-22 Jamaica Ave,Queens,40.69595311,-73.8414636
Abbydek Family Medical Practice ,Primary Care,656 Pennsylvania Ave ,Brooklyn ,40.66188151,-73.89309082
Abbydek Family Medical Practice ,Primary Care,7838 Parsons Blvd,Queens ,40.72194296,-73.80962314
Advanced Rehabiltation ,Primary Care,2305 Hylan Blvd ,Staten Island,40.57552761,-74.10590754
Advanta Medical PC,Primary Care,"3140 Coney Island Ave, 3rd FL",Brooklyn ,40.58001381,-73.95977613
AE3 Pharmacy ,Pharmacy ,818 57th St ,Brooklyn ,40.63720806,-74.00752456
AFC Family Health ,Primary Care,1200 Webster Ave,Bronx,40.83277458,-73.90966681
Ahmad Mahdi Pediatrics ,Primary Care,8314 4th Ave,Brooklyn ,40.62564743,-74.02775603
Aid Pharmacy ,Pharmacy ,807 Kings Highway ,Brooklyn ,40.60762895,-73.96455291
AJ Woodhaven Pharmacy ,Pharmacy,62-04B Woodhaven Blvd ,Queens ,40.72783369,-73.8708637
Alegria Health and Wellness ,Pharmacy ,3475 Third Ave ,Bronx ,40.83073482,-73.9064178
Allure Specialty Pharmacy ,Pharmacy ,4377 Bronx Boulevard ,Bronx ,40.89986285,-73.8583286
Altru Chemists ,Pharmacy ,987 Manhattan Ave ,Brooklyn ,40.73539418,-73.95469575
Amazing Medical Services ,Primary Care,"110-16 Sutphin Blvd , 1st FL",Queens ,40.69001562,-73.79672399
AMB Medical Services ,Primary Care,66-55 Fresh Pond Rd ,Queens ,40.70810204,-73.8971121
Ambar Pharmacy ,Pharmacy ,2544A White Plains Rd ,Bronx ,40.87505341,-73.86642244
Amiable Pharmacy ,Pharmacy ,1108 Liberty Ave ,Brooklyn ,40.68091283,-73.86739773
Andrew S. Kim MD,Primary Care,137-10 Franklin Ave L1,Queens ,40.75511545,-73.82675694
Andy Pharmacy II,Pharmacy ,1341 St. Nicholas Ave ,Manhattan,40.85760676,-73.93649918
Annadale Family Pharmacy ,Pharmacy ,831 Annadale Rd ,Staten Island,40.54484584,-74.17622338
Anthony Bertelle MD ,Primary Care,7515 13th Ave ,Brooklyn ,40.62036501,-74.00766203
Apicha Community Health Center ,Community Health Center/Clinic,400 Broadway ,Manhattan ,40.71930989,-74.00228923
APP Health Group ,Community Health Center/Clinic,60 Ploughmans Bush ,Bronx ,40.89313647,-73.91273549
Apthorp Pharmacy ,Pharmacy ,2191 Broadway ,Manhattan,40.78744192,-73.97995196
Arthur Ave Pharmavy ,Pharmacy ,2343 Arthur Ave,Bronx ,40.85478751,-73.88876177
Asencio Pharmacy Inc ,Pharmacy   ,154 E 174th St ,Bronx ,40.84499708,-73.90957927
Attentive Midwifery P.C. ,Community Health Center/Clinic,4166A White Plains Rd,Bronx ,40.89327843,-73.85745701
Auburndale Pharmacy Inc ,Pharmacy ,192-15 47th Ave ,Queens ,40.75328753,-73.78865546
Avenue X Primary Medical Care,Primary Care,400 Ave X ,Brooklyn ,40.59122229,-73.96789844
B & B Pharmacy Inc ,Pharmacy,79-08 37th Ave ,Queens ,40.74952464,-73.88675539
Bakers Drugs ,Pharmacy ,205-43 Linden Blvd ,Queens ,40.70061394,-73.74840561
Barclays Center - Modells Pop-Up Vaccination Site- Pop Up,Pop Up - Indoor,140 Flatbush Avenue, Brooklyn,40.646905,-73.958142
Bay Street Health Center ,Community Health Canter/Clinic,57 Bay Street,Staten Island,40.64078738,-74.07534662
Bayside Pediatric Care PC,Primary Care,221-16 Union Turnpike ,Queens,40.73591348,-73.74895149
Benjamin's Pharmacy & Surgical ,Pharmacy ,987 Allerton Ave ,Bronx ,40.87622066,-73.85916869
Best RX Pharmacy ,Pharmacy ,325 New Drop Lane ,Staten Island,40.57578941,-74.1108749
Big Apple Pharmacy ,Pharmacy ,37-71 103rd St,Queens ,40.75579837,-73.86323377
Bliss Pharmacy Inc ,Pharmacy ,1590 Madison Ave ,Manhattan ,40.79899211,-73.94918725
BMS Family Health Center at St. Paul Community Baptist Church,Community Health Canter/Clinic,859 Hendrix Street,Brooklyn,40.66048508,-73.88391169
Bodhi Medical Care LLC,Primary Care,302 E 72nd St ,Manhattan,40.76906598,-73.95809023
Boriken Neighborhood Health Center,Community Health Canter/Clinic,2265 3rd Avenue,Manhattan,40.80284486,-73.93643973
Boro Park Pharmacy ,Pharmacy,5600 New Utrecht Ave,Brooklyn ,40.6314299,-73.99584495
Bradley A. Connor MD ,Primary Care,110 E 55th St,Manhattan ,40.76052317,-73.97115464
Brighton Medical and Pediatric Care PC,Primary Care,706 Banner Ave,Brooklyn ,40.58393294,-73.96090128
Brighton Medical Practice PC,Primary Care,1199 Ocean Ave ,Brooklyn ,40.63330341,-73.95750275
Brightpoint Church Ave Health Center ,Community Health Center/Clinic,2412 Church Ave ,Brooklyn ,40.6507748,-73.95557393
Broadaway Pediatrics ,Primary Care,4250 Broadway ,Manhattan ,40.85056334,-73.93555396
Broadway Pharmacy ,Pharmacy,4329 Broadway ,Manhattan ,40.86663961,-73.93668414
Bronx Health Center ,Primary Care,253 E 142nd St ,Bronx ,40.81588781,-73.92515227
Bronx Health Collective ,Community Health Center/Clinic,871 Prospect Ave,Bronx,40.82147905,-73.90132228
Bronx Health Collective ,Community Health Center/Clinic,890 Prospect Ave ,Bronx ,40.82124989,-73.90153969
Bronx Treatment Center ,Primary Care,1250 Shakespeare Ave ,Bronx ,40.83923533,-73.92273144
BronxCare Dr. Martin Luther King Jr. Health Center ,Community Health Center/Clinic ,1265 Frankin Ave ,Bronx ,40.83211886,-73.90264046
BronxCare Health and Wellness Center ,Community Health Center/Clinic ,199 Mt. Eden Ave ,Bronx ,40.84383168,-73.90957488
BronxCare Hospital Center,Hospital Based Health Center/Clinic ,1650 Grand Concourse ,Bronx ,40.84384085,-73.91084377
BronxCare Life Recovery Center ,Hospital Based Health Center/Clinic ,1285 Fulton Ave ,Bronx ,40.83276978,-73.9037304
Brooklyn Life Medical Associates ,Primary Care,8210 18th Ave,Brooklyn ,40.60984157,-74.00028928
Brooklyn NP,Primary Care,210 Montrose Ave ,Brooklyn ,40.70804243,-73.94071683
"Brooklyn Plaza Medical Center, Inc",Primary Care,650 Fulton St,Brooklyn ,40.68757172,-73.97468122
Brownsville Multi-Service Family Health Center at Ashford ,Community Health Canter/Clinic,650 Ashford St,Brooklyn,40.66611184,-73.88341612
Burke Ave Pharmacy ,Pharmacy ,759 Burke Ave ,Bronx ,40.88643968,-73.86860681
C&Y Medical PC ,Primary Care,408 Jay St,Brooklyn ,40.69273029,-73.98719333
CAIPA Care ,community Health Center/Clinic ,41 Elizabeth St,Manhattan ,40.71772763,-73.99677208
Cairo RX Inc ,Pharmacy ,1932 Bath Ave ,Brooklyn ,40.60209966,-74.00295033
Caligor Pharmacy & Medical Supplies ,Pharmacy ,1226 Lexington Ave,Manhattan ,40.77769794,-73.95734499
Camkids Pediatrics ,Primary Care,117-06 225th St ,Queens ,40.69446265,-73.73573827
Care First Pharmacy ,Pharmacy ,8330 Broadway ,Queens ,40.74057077,-73.87926207
Carewell Pharamcy Services,Pharmacy ,2259 Church Ave ,Brooklyn ,40.6508111,-73.95688579
Caring Link Family Practice ,primary Care,650 E 226th St ,Bronx,40.88961337,-73.86171581
Castle Hill Community Pharmacy ,Pharmacy ,706 Castle Hill Ave,Bronx ,40.82158507,-73.848297
Cedi Medical Office ,primary Care,2940 Grand Concourse,Bronx ,40.87261416,-73.88726059
Cedra Pharmacy ,Pharmacy ,724 Elton Ave ,Bronx ,40.81993371,-73.91393566
Centers Urgent Care- Ave U ,Urgent Care ,2370 Coney Island Ave,Brooklyn ,40.59931252,-73.96154728
Centers Urgent Care- Coney island ,Urgent Care ,626 Sheepshead Bay ,Brooklyn ,40.57948058,-73.97556402
Centers Urgent Care- Flatbush ,Urgent Care ,1811 Ave J,Brooklyn ,40.62625473,-73.9579728
Centers Urgent Care- Gateway Mall ,Urgent Care ,1203 Elton St,Brooklyn ,40.65620898,-73.87330589
Centers Urgent Care- Middle Village ,Urgent Care ,61-22 Fresh Pond ,Queens ,40.71469448,-73.90141771
Century Pharmacy ,Pharmacy ,159 East Broadway ,Manhattan ,40.71401099,-73.99033877
Century Pharmacy ,Pharmacy ,225 Madison St ,Manhattan ,40.71657645,-73.98943744
Century Pharmacy ,Pharmacy ,302A Grand St,Manhattan ,40.71782565,-73.99159433
Chaula Patel MD ,primary Care,1560 Grand Concourse ,Bronx ,40.84287305,-73.9117833
Chelsea Apothecary Corp,Pharmacy ,265 8th Avenue ,Manhattan ,40.74589196,-73.9985103
Chester Pharmacy Corp ,Pharmacy,614 Flatbush Ave ,Brooklyn ,40.65862694,-73.96082637
CHI Health Center,Community Health Center/Clinic ,2882 W 15th St ,Brooklyn ,40.5778488,-73.98265083
Chi Shum MD,Primary Care ,219 E 47th St,Manhattan ,40.75422652,-73.971786
Church Ave Pharmacy ,Pharmacy,1810 Church Ave,Brooklyn ,40.64957048,-73.96270676
City Care Medical ,Primary Care,2-24 Beach 20th St,Queens,40.59622557,-73.75378245
City Care Medical ,Primary Care,227-19 Merrick Blvd ,Queens ,40.67776834,-73.74267005
City Care Medical ,Primary Care,710 Courtlandt Ave ,Bronx ,40.82100039,-73.91739958
City Line Pharmacy ,Pharmacy,4704 White Plains Rd ,Bronx,40.90388332,-73.84982269
City Prime Health ,Primary Care,28-02 Crescent St,Queens ,40.77005376,-73.92424615
City Prime Health ,Primary Care,3410 Broadway ,Manhattan ,40.82315155,-73.9529868
City Prime Health ,Primary Care,3671 Broadway ,Manhattan ,40.83126147,-73.94776891
City Prime Health ,Primary Care,423 E 138th St ,Bronx ,40.80967623,-73.92172424
City Prime Health ,Primary Care,565 W 125th St ,Manhattan ,40.8161604,-73.95773344
City Prime Health ,Primary Care,6008 Junction Blvd ,Queens ,40.73455923,-73.86487242
City Prime Health ,Primary Care,814 E 156th St,Bronx ,40.81822708,-73.90391766
CityDrug & Surgical ,Pharmacy,1 Audubon Ave ,Manhattan ,40.8389316,-73.93923506
Citywide Urgent Care ,Urgent Care ,236 Broadway ,Brooklyn ,40.70942266,-73.96011833
Citywide Urgent Care - Bronx ,Urgent Care,320 E 240th St ,Bronx ,40.90110173,-73.86669528
Citywide Urgent Care- Nostrand ,Urgent Care,2361 Nostrand Ave,Brooklyn ,40.62745028,-73.94673106
Claremont Family Health Center,Community Health Care/Clinic ,262-4 E 17th St,Bronx ,40.84525329,-73.90606893
Clarkson Pharmacy ,Pharmacy,524 Clarkson Ave ,Brooklyn ,40.6559204,-73.94207994
Clove Pharmacy ,Pharmacy ,1265 Clove Rd Store E ,Staten Island,40.61632804,-74.10316433
Cohen Medical Clinic,Primary Care,352 Thomas S Boyland St ,Brooklyn ,40.67304725,-73.91418088
Colombo's Pharmacy ,Pharmacy ,75-51 Metropolitan Ave ,Queens ,40.71350188,-73.87570783
Community Chemists,Pharmacy ,394 Ave P ,Brooklyn ,40.60884068,-73.97276256
Concordia Pharmacy Inc ,,898 East Tremont Ave ,Bronx ,40.84205991,-73.88421656
Coney Island Health Services Inc ,Primary Care,3514 Mermaid Ave ,Brooklyn ,40.57475332,-74.00090046
COTSCO Pharmacy ,Pharmacy ,2975 Richmond Ave,Staten Island,40.57275957,-74.16820737
COTSCO Pharmacy ,Pharmacy ,32-50 Vernon Blvd ,Queens ,40.76772749,-73.93912636
COTSCO Pharmacy ,Pharmacy ,517 East 117th St ,Manhattan ,40.79562152,-73.93097929
COTSCO Pharmacy ,Pharmacy ,61-35 Junction Blvd ,Queens ,40.73345308,-73.86379494
COTSCO Pharmacy ,Pharmacy ,976 3rd Ave ,Brooklyn ,40.65592447,-74.0092635
CSS Pharmacy ,Pharmacy ,2043 Grand Concourse ,Bronx ,40.85837267,-73.90305262
CVS Pharmacy ,Pharmacy ,1 Columbus Place ,manhattan ,40.76937102,-73.98583564
CVS Pharmacy ,Pharmacy ,100-02 Queens Blvd ,Queens ,40.72672419,-73.85373874
CVS Pharmacy ,Pharmacy ,10204 Flatlands Ave,Brooklyn ,40.64625121,-73.89642647
CVS Pharmacy ,Pharmacy ,108-11 Queens Blvd ,Queens ,40.72163326,-73.84301466
CVS Pharmacy ,Pharmacy ,112 W 34th Street ,Manhattan ,40.75002635,-73.98872626
CVS Pharmacy ,Pharmacy ,1125 Bay Sreet ,Staten Island,40.61607159,-74.06696269
CVS Pharmacy ,Pharmacy ,115 W. 125th Street ,Manhattan ,40.80847501,-73.94566497
CVS Pharmacy ,Pharmacy ,1172 3rd Ave ,Manhattan ,40.76774507,-73.96262486
CVS Pharmacy ,Pharmacy ,118-10 Queens Blvd,Queens ,40.71483991,-73.83251989
CVS Pharmacy ,Pharmacy ,1223 2nd Ave ,Manhattan ,40.76414057,-73.96234253
CVS Pharmacy ,Pharmacy ,1241 Lexington Ave ,Manhattan ,40.77839552,-73.9562245
CVS Pharmacy ,Pharmacy ,129 Fulton Street ,Manhattan ,40.71049909,-74.0073819
CVS Pharmacy ,Pharmacy ,1294 Lexington Ave ,Manhattan ,40.78071508,-73.95521277
CVS Pharmacy ,Pharmacy ,130 Dyckman Sreet ,Manhattan ,40.86280414,-73.9256302
CVS Pharmacy ,Pharmacy ,130 Lenox Avenue ,Manhattan ,40.80239261,-73.94920863
CVS Pharmacy ,Pharmacy ,132-22 14th Ave ,Queens ,40.78591525,-73.8357264
CVS Pharmacy ,Pharmacy ,1346  Pennsylvania Ave ,Brooklyn ,40.64730713,-73.88266189
CVS Pharmacy ,Pharmacy ,135-05 20th Ave ,Queens,40.78347251,-73.83349406
CVS Pharmacy ,Pharmacy ,1361 Hylan Boulevard ,Staten Island,40.59560855,-74.08650612
CVS Pharmacy ,Pharmacy ,1396 2nd Ave ,Manhattan ,40.76922102,-73.95796333
CVS Pharmacy ,Pharmacy ,1402 Sheepshead Bay Road ,Brooklyn ,40.58772931,-73.95505454
CVS Pharmacy ,Pharmacy ,1440 Broadway,Manhattan ,40.7545497,-73.98650665
CVS Pharmacy ,Pharmacy ,1-50 50th Ave ,Queens ,40.74371489,-73.95907534
CVS Pharmacy ,Pharmacy ,150 Court Street ,Brooklyn ,40.68914992,-73.99297363
CVS Pharmacy ,Pharmacy ,153-01 10th Ave ,Queens,40.64773122,-73.97006698
CVS Pharmacy ,Pharmacy ,156 Henry St ,Brooklyn ,40.69616935,-73.99393133
CVS Pharmacy ,Pharmacy ,1500 Lexington Ave ,Manhattan ,40.78662246,-73.95081366
CVS Pharmacy ,Pharmacy ,139 Flatbush Ave ,Brooklyn ,40.68464876,-73.97730363
CVS Pharmacy ,Pharmacy ,1249 Nostrand Ave ,Brooklyn ,40.65691282,-73.9498049
CVS Pharmacy ,Pharmacy ,1569 1st Ave ,Manhattan,40.77521723,-73.95182102
CVS Pharmacy ,Pharmacy ,157-05 Cross Bay Blvd ,Queens ,40.66252476,-73.84000879
CVS Pharmacy ,Pharmacy ,1571 Forest Ave ,Staten Island,40.62534788,-74.14026606
CVS Pharmacy ,Pharmacy ,158 Bleecker Street ,Manhattan ,40.72868868,-74.00010949
CVS Pharmacy ,Pharmacy ,1598 flatbush Ave,Brooklyn ,40.63169315,-73.94670859
CVS Pharmacy ,Pharmacy ,1601 Kings Highway ,Brooklyn,40.60971265,-73.95713064
CVS Pharmacy ,Pharmacy ,161 Ave of The Americas ,Manhattan ,40.72614715,-74.00436213
CVS Pharmacy ,Pharmacy ,1622 3rd Ave ,Manhattan ,40.78245263,-73.95179322
CVS Pharmacy ,Pharmacy ,1654 Richmond Ave ,Staten Island,40.60857964,-74.16424122
CVS Pharmacy ,Pharmacy ,168 Montague Street ,Brooklyn ,40.69409264,-73.99240237
CVS Pharmacy ,Pharmacy ,1688 Westchester Ave ,Bronx ,40.83036977,-73.87106947
CVS Pharmacy ,Pharmacy ,170-05 Linden Blvd ,Queens ,40.69200802,-73.77975979
CVS Pharmacy ,Pharmacy ,172-21 46th Ave ,Queens ,40.75364504,-73.79286887
CVS Pharmacy ,Pharmacy ,178-02 Hillside Ave,Queens ,40.71227242,-73.78490442
CVS Pharmacy ,Pharmacy ,1916  Williamsburg Rd ,Bronx ,40.85354732,-73.85291473
CVS Pharmacy ,Pharmacy ,1933 Victory Blvd ,Staten Island,40.61299308,-74.12870004
CVS Pharmacy ,Pharmacy ,20 University Place ,Manhattan ,40.73209651,-73.99491313
CVS Pharmacy ,Pharmacy ,200 West End Ave ,Manhattan ,40.77812367,-73.98544857
CVS Pharmacy ,Pharmacy ,2014 Cropsey Ave ,Brooklyn ,40.59986975,-74.00257412
CVS Pharmacy ,Pharmacy ,2045 Forest Ave,Staten Island,40.62733014,-74.15722197
CVS Pharmacy ,Pharmacy ,206-09 Linden Blvd ,Queens,40.69665853,-73.74568353
CVS Pharmacy ,Pharmacy ,20-21 Francis Lewis Blvd ,Queens ,40.78004286,-73.80180963
CVS Pharmacy ,Pharmacy ,2112 White Plains Rd ,Bronx ,40.85398975,-73.86732383
CVS Pharmacy ,Pharmacy ,212-20 Northern Blvd ,Queens ,40.75993902,-73.76990346
CVS Pharmacy ,Pharmacy ,215 Park Ave South ,Manhattan ,40.73701633,-73.98842282
CVS Pharmacy ,Pharmacy ,215-08 73rd Ave,Queens,40.71976144,-73.83830063
CVS Pharmacy ,Pharmacy ,2151 86th Street ,Brooklyn ,40.60291258,-73.9944746
CVS Pharmacy ,Pharmacy ,218 Myrtle Ave ,Brooklyn ,40.69355342,-73.97946914
CVS Pharmacy ,Pharmacy ,2182 Broadway ,manhattan ,40.78268137,-73.98056749
CVS Pharmacy ,Pharmacy ,219-39 89th Ave ,Queens ,40.73019757,-73.74372203
CVS Pharmacy ,Pharmacy ,222 East 34th Street,Manhattan ,40.74518708,-73.97707995
CVS Pharmacy ,Pharmacy ,224 East 161st St ,Bronx ,40.82458715,-73.91971347
CVS Pharmacy ,Pharmacy ,241 West 57th Street ,Manhattan ,40.767027,-73.98256857
CVS Pharmacy ,Pharmacy ,2320 Ralph Ave ,Brooklyn ,40.62151747,-73.91788402
CVS Pharmacy ,Pharmacy ,2465 Richmond Ave ,Staten Island,40.58781593,-74.16636432
CVS Pharmacy ,Pharmacy ,2495 Broadway ,Manhattan ,40.79292994,-73.9737163
CVS Pharmacy ,Pharmacy ,250 Page Ave ,Staten Island,40.51734039,-74.2353776
CVS Pharmacy ,Pharmacy ,251-21 Jamaica Ave ,Queens ,40.72785577,-73.71358882
CVS Pharmacy ,Pharmacy ,253 1st Ave ,Manhattan ,40.73213587,-73.98256526
CVS Pharmacy ,Pharmacy ,254-03 Hillside Ave ,Queens ,40.73649382,-73.71329999
CVS Pharmacy ,Pharmacy ,255 Greenwich St ,Manhattan ,40.71448909,-74.01093106
CVS Pharmacy ,Pharmacy ,260 Arden Ave ,Staten Island,40.55327712,-74.19233247
CVS Pharmacy ,Pharmacy ,2690 Hylan blvd ,Staten Island,40.56675853,-74.11323556
CVS Pharmacy ,Pharmacy ,27 North 6th Street ,Brooklyn ,40.72039213,-73.96258272
CVS Pharmacy ,Pharmacy ,271 Beach 20th Street,Queens ,40.59731848,-73.75516494
CVS Pharmacy ,Pharmacy ,272 8th Ave ,Manhattan ,40.74655113,-73.99793134
CVS Pharmacy ,Pharmacy ,275 3rd Ave ,Manhattan ,40.73805129,-73.98343463
CVS Pharmacy ,Pharmacy ,282 East 149th Street ,Bronx ,40.81708267,-73.92220729
CVS Pharmacy ,Pharmacy ,2833 Broadway ,Manhattan ,40.80430684,-73.96724337
CVS Pharmacy ,Pharmacy ,2873 Richmond Ave,Staten Island,40.57495811,-74.16673706
CVS Pharmacy ,Pharmacy ,288 St Nicholas Ave ,Manhattan ,40.81063289,-73.95255743
CVS Pharmacy ,Pharmacy ,2900 Veterans Road West ,Staten Island,40.52882089,-74.23281602
CVS Pharmacy ,Pharmacy ,292 Madison Ave ,Manhattan ,40.75223016,-73.98019302
CVS Pharmacy ,Pharmacy ,2925 Kings Highway ,Brooklyn ,40.61650991,-73.94526933
CVS Pharmacy ,Pharmacy ,298 Mullberry Street ,Manhattan ,40.72524286,-73.99438022
CVS Pharmacy ,Pharmacy ,30 Flatbush Ave ,Brooklyn,40.6888875,-73.98070607
CVS Pharmacy ,Pharmacy ,300 Park Avenue South ,Manhattan ,40.7399864,-73.98693494
CVS Pharmacy ,Pharmacy ,305 East 86th Street ,Manhattan ,40.77867709,-73.9513951
CVS Pharmacy ,Pharmacy ,30-97 Steinway Street ,Queens ,40.7615366,-73.91667382
CVS Pharmacy ,Pharmacy ,31-01 Ditmars Blvd ,Queens ,40.77667921,-73.91022646
CVS Pharmacy ,Pharmacy ,3125 Bainbridge Ave ,Bronx ,40.87458327,-73.87956043
CVS Pharmacy ,Pharmacy ,320 5th Ave ,Manhattan ,40.74766011,-73.98578214
CVS Pharmacy ,Pharmacy ,329 Wyckoff Ave ,Queens ,40.70008723,-73.91108003
CVS Pharmacy ,Pharmacy ,338 East 23rd Street ,Manhattan ,40.7371391,-73.9794448
CVS Pharmacy ,Pharmacy ,341 9th Street ,Brooklyn ,40.66899145,-73.98486056
CVS Pharmacy ,Pharmacy ,35-26 Francis Lewis Blvd ,Queens ,40.76384266,-73.78801064
CVS Pharmacy ,Pharmacy ,3536 Broadway ,Manhattan,40.82624079,-73.95034332
CVS Pharmacy ,Pharmacy ,3681 Bruckner Blvd ,Bronx,40.85323849,-73.82756853
CVS Pharmacy ,Pharmacy ,3775 East Trestmont Ave ,Bronx ,40.82571501,-73.8205401
CVS Pharmacy ,Pharmacy ,387 Park Ave South ,Manhattan,40.74307188,-73.98409529
CVS Pharmacy ,Pharmacy ,395 Court Street ,Brooklyn,40.67995633,-73.99688047
CVS Pharmacy ,Pharmacy ,40 West 225th Street,Bronx,40.87360333,-73.90780198
CVS Pharmacy ,Pharmacy ,400 Grand St ,Manhattan,40.71671797,-73.9867718
CVS Pharmacy ,Pharmacy ,40-24 College Point Blvd ,Queens ,40.75744028,-73.83566823
CVS Pharmacy ,Pharmacy ,4055 Hylan Boulevard ,Staten Island,40.54179637,-74.14747401
CVS Pharmacy ,Pharmacy ,4065 Amboy Road ,Staten Island,40.54986651,-74.15237392
CVS Pharmacy ,Pharmacy ,41-08 Queens Blvd ,Queens ,40.74336757,-73.9231688
CVS Pharmacy ,Pharmacy ,411 Ditmas Ave ,Brooklyn ,40.63634722,-73.97472315
CVS Pharmacy ,Pharmacy ,4112 Avenue U,Brooklyn ,40.60873521,-73.92318788
CVS Pharmacy ,Pharmacy ,420 5th Ave,Manhattan ,40.7513306,-73.9831741
CVS Pharmacy ,Pharmacy ,445 Gold Street ,Brooklyn ,40.69229924,-73.98309665
CVS Pharmacy ,Pharmacy ,475 Ave of the Americas ,Manhattan,40.73770954,-73.99718314
CVS Pharmacy ,Pharmacy ,4901 Kings Highway ,Brooklyn ,40.6345829,-73.92891497
CVS Pharmacy ,Pharmacy ,5 Penn Plaza,Manhattan ,40.75258696,-73.99417499
CVS Pharmacy ,Pharmacy ,50 East 167th Street ,Bronx ,40.83553237,-73.92067574
CVS Pharmacy ,Pharmacy ,500 Grand Street ,Manhattan,40.71577551,-73.98286893
CVS Pharmacy ,Pharmacy ,500 West 23rd St,Manhattan,40.74856212,-74.00477977
CVS Pharmacy ,Pharmacy ,500 West 42nd St,Manhattan,40.76009937,-73.99574791
CVS Pharmacy ,Pharmacy ,501 Forest Ave ,Staten Island,40.63094496,-74.10625073
CVS Pharmacy ,Pharmacy ,51 Astor Place,Manhattan ,40.73024739,-73.99024637
CVS Pharmacy ,Pharmacy ,512 2nd Ave ,Manhattan,40.74223677,-73.97818
CVS Pharmacy ,Pharmacy ,519 Gateway Drive ,Brooklyn ,40.65372696,-73.86996371
CVS Pharmacy ,Pharmacy ,532 Neptune Ave ,Brooklyn ,40.5792722,-73.97434512
CVS Pharmacy ,Pharmacy ,540 Amsterdam Ave,Manhattan ,40.7882295,-73.97510734
CVS Pharmacy ,Pharmacy ,54-06 31st Ave,Queens ,40.75768675,-73.90723862
CVS Pharmacy ,Pharmacy ,565 West 235th Street ,Bronx ,40.88672301,-73.91056284
CVS Pharmacy ,Pharmacy ,5830 Amboy Road ,Staten Island,40.52620158,-74.20165069
CVS Pharmacy ,Pharmacy ,61-15 Metropolitan Ave ,Queens ,40.71316356,-73.90133601
CVS Pharmacy ,Pharmacy ,61-26 188th Street ,Queens,40.73989861,-73.78641522
CVS Pharmacy ,Pharmacy ,640 Arthur Kill Road ,Staten Island,40.55973903,-74.16280322
CVS Pharmacy ,Pharmacy ,65 5th Avenue ,Manhattan,40.7362811,-73.99355606
CVS Pharmacy ,Pharmacy ,6702 Ft Hamilton Parkway ,Brooklyn ,40.63039219,-74.0109611
CVS Pharmacy ,Pharmacy ,68-02 Myrtle Ave ,Queens ,40.70156779,-73.88440757
CVS Pharmacy ,Pharmacy ,6831 Bay Parkway ,Brooklyn ,40.61107424,-73.9838223
CVS Pharmacy ,Pharmacy ,69-80 Grand Ave ,Queens ,40.72741157,-73.89276896
CVS Pharmacy ,Pharmacy ,700 Exterior Street ,Bronx ,40.82407295,-73.92988782
CVS Pharmacy ,Pharmacy ,70-00 Austin St,Queens,40.72292032,-73.84754067
CVS Pharmacy ,Pharmacy ,72-09 Nothern Blvd ,Queens ,40.75563534,-73.89431033
CVS Pharmacy ,Pharmacy ,732 Allerton Ave ,Bronx ,40.86553033,-73.86605646
CVS Pharmacy ,Pharmacy ,743 Amsterdam Ave ,Manhattan ,40.7949418,-73.9700546
CVS Pharmacy ,Pharmacy ,75 Christopher Street ,Manhattan ,40.73442326,-74.00303636
CVS Pharmacy ,Pharmacy ,750 Ave of the Americas ,Manhattan ,40.74473828,-73.99181744
CVS Pharmacy ,Pharmacy ,757 3rd Ave ,Manhattan ,40.75451292,-73.97194095
CVS Pharmacy ,Pharmacy ,778 Manor Road ,Staten Island,40.60816372,-74.12169346
CVS Pharmacy ,Pharmacy ,7960 Metropolitan Ave ,Queens ,40.71304855,-73.87188564
CVS Pharmacy ,Pharmacy ,800 10th Ave,Manhattan ,40.77319226,-73.98951772
CVS Pharmacy ,Pharmacy ,81 8th Ave ,Manhattan ,40.74030405,-74.00278697
CVS Pharmacy ,Pharmacy ,815 Hutchinson River Pkwy ,Bronx ,40.82404149,-73.83684895
CVS Pharmacy ,Pharmacy ,83-02 Atlantic Ave ,Queens ,40.68581934,-73.85764637
CVS Pharmacy ,Pharmacy ,8430 New Utrecht Ave ,Brooklyn ,40.60883438,-74.00194871
CVS Pharmacy ,Pharmacy ,85-29 126th Street ,Queens ,40.70427171,-73.82494756
CVS Pharmacy ,Pharmacy ,859 Manhatan Ave ,Brooklyn ,40.72991102,-73.95405434
CVS Pharmacy ,Pharmacy ,88-01 Queens Blvd ,Queens ,40.74062779,-73.87361039
CVS Pharmacy ,Pharmacy ,88-07 Rockaway Beach Blvd ,Queens ,40.58747845,-73.81307434
CVS Pharmacy ,Pharmacy ,89-11 Northern Blvd ,Queens ,40.75675236,-73.87837505
CVS Pharmacy ,Pharmacy ,969 2nd Ave ,Manhattan,40.75681879,-73.96795791
CVS Pharmacy ,Pharmacy ,97-01 Liberty Ave ,Queens ,40.68206132,-73.8420075
CVS Pharmacy ,Pharmacy ,97-10 63rd Rd ,Queens ,40.73115026,-73.8603636
CVS Pharmacy ,Pharmacy ,97-15 Metropolitan Ave,Queens ,40.71201716,-73.85546961
Damian Family Care Center - Firehouse,Community Health Canter/Clinic,89-56 162nd Street,Queens,40.70574634,-73.79840709
Damian Family Care Center - Third Avenue,Community Health Canter/Clinic,2604 3rd Avenue,Bronx,40.81251484,-73.92512384
Daystar Medical Services ,Primary Care ,1180 E 92nd St ,Brooklyn ,40.64161208,-73.90438071
DET Medical PC ,Primary Care,175-67 Hillside Ave,Queens ,40.71324517,-73.78573826
Doctor Urgent Medical Care-Bronx ,Urgent Care,538 E Fordham Rd ,Bronx ,40.85998734,-73.88731892
Dorado Pharmacy ,Pharmacy ,1400 Forest Ave ,Staten Island,40.62520677,-74.13541789
Doral Medical and Multispecialty Facility LLC,Community Health Center/Clinic ,1797 Pikin Ave,Brooklyn ,40.67103632,-73.90690516
"Downtown Family Medicine, PC ",Primary Care,65 Broadway ,Manhattan ,40.70814286,-74.0126231
Dr. Moysik Medical PC,Primary Care ,3000 Ocean Pkway ,Brooklyn ,40.578205,-73.96884396
Dr. Uriel Medical PLLC,Primary Care ,69-27 164th st,Queens ,40.73310067,-73.80491873
Drug Mart ,Pharmacy ,5203a Broadway ,Bronx ,40.87496519,-73.90987027
Eagle Pharmacy ,Pharmacy ,64-02 Flushing Ave ,Queens ,40.7233008,-73.90120783
East Sunrise Medical PLLC ,Primary Care ,38-08 Union St ,Queens ,40.63640759,-74.010934
East Sunrise Medical PLLC ,Primary Care ,745 61st St ,Brooklyn,40.63644015,-74.01106274
East Tremont Pharmacy Inc,Pharmacy ,1065 East Tremont Ave ,Bronx,40.84104234,-73.87901481
Elina Yushuvayev MD,Primary Care ,225-15 Northern Blvd ,Queens ,40.76295696,-73.75902614
Elite Chemists ,Pharmacy ,6097 Putnam Ave ,Queens ,40.70668244,-73.89744311
Elmside Meidcal PLLC ,Primary Care ,92-04 Corona Ave,Queens ,40.74301788,-73.87203734
Embassy Drugs ,Pharmacy ,1873 Amsterdam Ave,Manhattan ,40.83072409,-73.94400089
"Endocrine Associate of West Village, PC ",Primary Care,1434 Williamsburg Rd ,Queens ,40.84371971,-73.84450493
Esco Drug Inc.,Pharmacy ,687 9th Ave ,Manhattan ,40.76261826,-73.9902676
Essen Health Care: Metro Urgicare ,Urgent Care,1550 University Ave,Bronx ,40.84672131,-73.86711496
Essen Health Care: Metro Urgicare ,Urgent Care,2720 White Plains Rd ,Bronx ,40.86679276,-73.86715787
Essen Health Care: Metro Urgicare ,Urgent Care,2742 3rd Ave ,Bronx,40.81494935,-73.92071016
Essen Health Care: Metro Urgicare ,Urgent Care,540 E 138th St ,Bronx ,40.80780614,-73.91783221
Essen Health Care: Metro Urgicare ,Urgent Care,899 Elton Ave ,Bronx ,40.82484678,-73.91192909
Estates Pharmacy ,Pharmacy ,169-01 Hillside Ave ,Queens ,40.71117146,-73.79289862
Euro Chemist Pharmacy ,Pharmacy ,669 Manhattan Ave,Brooklyn ,40.7248544,-73.95158248
Eve and Mike Pharmacy ,Pharmacy ,552 St Marks Ave ,Brooklyn ,40.67600251,-73.9563187
Eve Pharmacy ,Pharmacy ,2836 Coney Island Ave ,Brooklyn ,40.58760394,-73.96078352
Ezra Medical Center,Community Health Canter/Clinic,1260 60th Street ,Brooklyn,40.63038058,-73.99916769
Ezra Medical Center for Women's Health,Community Health Canter/Clinic,1278 60th Street,Brooklyn,40.63041315,-73.99912478
Family Drug Store ,Pharmacy ,2550 Bosten Road ,Bronx,40.86492939,-73.86382453
Family Health Care PLLC ,Primary Care ,2116 Bath Ave ,Brooklyn ,40.60049027,-73.99909953
Family Medical Center,Primary Care ,5908 5th Ave ,Brooklyn ,40.64065534,-74.01599949
Farmacia Central Inc. ,Pharmacy ,102 Nagle Ave ,Manhattan,40.87235753,-73.92683867
Fecility Pharmacy ,Pharmacy ,621 East Tretmont Ave ,Bronx ,40.84701751,-73.89251137
First Aid Pharmacy ,Pharmacy ,921 East Tretmont Ave ,Bronx ,40.84223417,-73.88352182
First MedCare,Primary Care,8707 Flatlands Avenue Floor 2,Brooklyn,40.6417299,-73.90757075
FirstMed Pharmacy Inc ,Pharmacy ,39-36 Queens Blvd ,Queens ,40.74442352,-73.92472504
Flushing OB/GYN,Primary Care ,136-20 38th Ave ,Queens ,40.76150118,-73.82979149
Franconia Pharmacy ,Pharmacy ,45-02 162nd Street ,Queens ,40.7569028,-73.80435423
Franhill Pharmacy ,Pharmacy ,204-19 Hillside Ave,Queens ,40.72174217,-73.76082066
Free Synagogue of Flushing,Community Health Canter/Clinic,41-60 Kissena Blvd,Queens,40.76605465,-73.82757149
Freya Pharmacy Inc. ,Pharmacy ,101-19 39th Ave ,Queens ,40.75113756,-73.86445112
Fuller Drug Store ,Pharmacy ,2688 Third Ave ,Bronx ,40.81345696,-73.92242173
Fulton Care Pharmacy ,Pharmacy ,557 East 169th Street ,Bronx ,40.83317408,-73.90379504
Fulton Drugs ,Pharmacy ,1548 Fulton Street ,Brooklyn ,40.67981308,-73.93902785
Future Care Internal Medicine ,Primary Care ,6405 Yellowstone Blvd ,Queens ,40.7330538,-73.85125328
Gena Care Pharmacy ,Pharmacy ,173 Chauncey St ,Brooklyn ,40.68135901,-73.92863362
Geo Pharmacy Inc. ,Pharmacy ,685 Coney Island Ave ,Brooklyn ,40.64091235,-73.96884886
"George Hall MD, PC/Manhattan ",Primary Care ,217 Grand St,Manhattan ,40.71933869,-73.99611627
Gig Pharmacy Inc. ,Pharmacy ,3405 Jerome Ave ,Bronx ,40.88149306,-73.88372956
Gotham Health ,Community Health Canter/Clinic,545 East 142nd Street,Bronx,40.81592864,-73.91508179
Gotham Health ,Community Health Canter/Clinic,100 North Portland Avenue,Brooklyn,40.69780574,-73.97661101
Gotham Health ,Community Health Canter/Clinic,2094 Pitkin Avenue,Brooklyn,40.67399223,-73.89591906
Gotham Health ,Community Health Canter/Clinic,"227 Madison Street, Manhattan",Manhattan,40.71563628,-73.98788658
Gotham Health ,Community Health Canter/Clinic,1225 Gerard Avenue,Bronx,40.84735556,-73.91920832
Gotham Health ,Community Health Canter/Clinic,264 West 118th Street,Manhattan,40.81087039,-73.9559372
Gotham Health ,Community Health Canter/Clinic,165 Vanderbilt Avenue,Brooklyn,40.69505568,-73.96990925
Gramercy Drugs Inc,Pharmacy ,2218 Ave X ,Brooklyn,40.59382382,-73.94722973
Grand Care Pharmacy ,Pharmacy ,66-56 Grand Ave,Queens ,40.72557323,-73.89693806
Great City Medical ,Primary Care,68 E 131st St,Manhattan ,40.80948616,-73.93705879
Gristedes Pharmacy ,Pharmacy ,101 Clark Ave Street ,Brooklyn ,40.69803129,-73.99260444
Guardian Pharmacy ,Pharmacy ,117-04 Atlantic Ave ,Queens  ,40.6942938,-73.82913635
Gupta Gastro ,Primary Care ,130 Ave P,Brooklyn ,40.6082934,-73.98282722
Gupta Gastro ,Primary Care ,238 Beach 20th St,Queens ,40.59693298,-73.75391813
Hamilton Pharmacy Inc,Pharmacy ,3292 Broadway ,Manhattan ,40.8196936,-73.95636654
Harlem Cardiology on Madison Ave ,Primary care ,1787 Madison Ave,Manhattan ,40.80168906,-73.94359816
Harmony Pharmacy ,Pharmacy ,"128 Mott St, Suite 301 ",Manhattan,40.71870297,-73.99641889
HCC Community Health Center ,Community Health Center/Clinic ,179 Jamaica Ave,Brooklyn ,40.68058552,-73.89415307
Health Max 5th Ave Pharmacy ,Pharmacy ,5315 5th Ave ,Brooklyn ,40.77821351,-73.96304116
Health Wise Pharmacy Inc. ,Pharmacy ,1491 York Ave ,Manhattan ,40.77176297,-73.95057905
Healthier Primary Care,Primary Care,136-20 38th Street ,Queens ,40.76188121,-73.82991791
HealthNeed Medical Urgent Care,Urgent Care,38-21 Main St ,Queens ,40.76084122,-73.82844185
Healthpro Pharmacy Inc ,Pharmacy ,217 Schenectady Ave ,Brooklyn ,40.67217636,-73.933583
HealthSource Pharmacy ,Pharmacy ,1000 1st Ave ,Manhattan,40.75758803,-73.96372496
HealthSource Pharmacy ,Pharmacy ,120 East 34th Street ,Manhattan ,40.7471624,-73.98043146
HealthSource Pharmacy ,Pharmacy ,1302 2nd Ave ,Manhattan ,40.76716232,-73.95977554
Healthy Corner Pharmacy ,Pharmacy ,116-65 Queens Blvd ,Queens ,40.70764738,-73.83477492
Healthy Pharmacy ,Pharmacy ,108 Bowery Manhattan ,Manhattan,40.71876535,-73.99537582
Heritage Healthcare Center Manhattan ,Community Health Center/Clinic ,1727 Amsterdam Ave ,Manhattan ,40.82635171,-73.94719276
Hester Pharmacy Corp. ,Pharmacy ,153 Hester Street 1st Fl ,Manhattan,40.71777137,-73.9957796
Hester Pharmacy. ,Pharmacy ,593 Fort Washington Ave ,Manhattan ,40.85562491,-73.93689457
Hopkins Drugs & Compounding ,Pharmacy ,63-19 Roosevelt Ave ,Queens ,40.74682393,-73.90023111
Horizon Pharmacy III,Pharmacy ,81-14 Broadway ,Queens ,40.74330914,-73.88371438
Hospital for Special Surgery - Richard L. Menschel,Hospital-Based Health Center/Clinic,535 East 70th Street,Manhattan,40.76520193,-73.95274045
Hoyt Pharmacy ,Pharmacy ,3024 Atlantic Ave ,Brooklyn ,40.67908807,-73.8825182
I&Y Pharmacy Corp ,Pharmacy ,66-69 Fresh Pond Rd ,Queens ,40.70771657,-73.89693594
Ilana's Pharmacy ,Pharmacy ,180-30 Union Turnpike ,Queens ,40.72771218,-73.78729829
Institute for Family Health - Stevenson Family Health Center,Community Health Canter/Clinic,731 White Plains Road,Bronx,40.82041652,-73.85820684
Invicta Medical Group, Primary Care ,8788 Bay Parkway,Brooklyn ,40.59938891,-73.99785376
Isha Health Facility ,Community Health Center/Clinic ,679 E 138th Street,Bronx,40.80620012,-73.9138749
Island Pediatrics Associates ,Primary Care,114-12 Beach Channel Drive,Queens ,40.58251591,-73.83757095
J&N Pharmacy ,Pharmacy ,1220 Morris Ave ,Bronx ,40.83418182,-73.91362513
JA Personal Medical Care,Primary Care,355 Ovington Ave ,Brooklyn ,40.63458447,-74.02470668
Jannat Pharmacy -Jackson Heights ,Pharmacy ,72-03 35th Ave ,Queens,40.75116298,-73.89387728
John Abroon MD ,Primary Care,34 E 72nd St,Manhattan ,40.62752533,-73.91668612
"Jonathan Leibowitz, MD ",Primary Care,1343 55th Street ,Brooklyn ,40.63175223,-73.99435316
Joseph Pharmacy ,Pharmacy ,216 West 72nd Street,Manhattan ,40.77932571,-73.98280297
JP Morgan Chase Vaccination Clinic ,Primary Care ,4 MetroTech Center,Brooklyn ,40.69350457,-73.98381981
Juno Medical ,Primary Care,2298 Frederick Douglass Blvd ,Manhattan ,40.81000801,-73.95119333
Kaneda Pharmacy ,Pharmacy ,40-32 Union Street ,Queens ,40.76008025,-73.82612513
Katherine Zeng,Primary Care ,133-47 Sanford Ave ,Queens ,40.75710047,-73.82962342
Katz Drugs ,Pharmacy ,76 Graham Ave ,Brooklyn ,40.70374008,-73.94237777
Kings Court Drugs ,Pharmacy ,8 Newkirk Plaza ,Brooklyn ,40.63606432,-73.96240505
Kings Third Ave Pharmacy ,Pharmacy ,1619 3rd Ave ,Manhattan ,40.78247463,-73.95144246
Kingsbrook Jewish Medical Center ,Hospital Based Health Center/Clinic ,585 Schenectady Ave,Brooklyn ,40.65980348,-73.93378121
Kissena Drugs & Surgical Supply ,Pharmacy ,72-63 Kissena Blvd ,Queens ,40.72825222,-73.81293403
Kmart Pharmacy 7777,Pharmacy ,770 Broadway ,Manhattan,40.73126707,-73.99152114
Kmart Pharmacy 9420 ,Pharmacy ,1998 Bruckner Blvd,Bronx ,40.82584512,-73.85685677
"La Casa De Salud, Inc. ",Community Health Center/Clinic,966 Prospect Ave ,Bronx ,40.82378049,-73.89986968
La Guardia Pharmacy ,Pharmacy ,101-22 Astoria Blvd ,Queens ,40.76216016,-73.86765069
Larimar Family Healthcare ,Primary Care,4 Highlawn Ave,Brooklyn ,40.60338796,-73.98595937
LaSante Health Center,Community Health Canter/Clinic,672 Parkside Avenue,Brooklyn,40.65613516,-73.95058312
LaSante Health Center,Community Helath Center/Clinic ,672 Parkside Ave,Brooklyn ,40.65771141,-73.95020931
Legacy Speciality Pharmacy ,Pharmacy ,68-51 Fresh Pond Road ,Queens ,40.70471554,-73.89560282
Lenox Health Greenwich Village ,Hospital Based Health Center/Clinic ,200 W 13th Street ,Manhattan ,40.73863165,-74.00058287
Lenox Hill Hospital- Einhorn Auditorium ,Hospital Based Health Center/Clinic ,131 E 76th St,Manhattan,40.77466763,-73.960831
Leroy Pharmacy ,Pharmacy ,314 East 204 Street ,Bronx ,40.8734214,-73.87860957
Leroy's Pharmacy ,Pharmacy ,901 East Tretmont Ave ,Bronx ,40.84290462,-73.88456616
Lexington Medical Associates ,Primary Care,139 E 57th St ,Manhattan ,40.76172158,-73.96875934
Lieb Pharmacy Inc ,Pharmacy ,5006 16 Ave ,Brooklyn,40.63097896,-73.98649046
Lingling Zeng MD,Primary Care,136-20 38 Ave,Queens ,40.76156828,-73.82980802
Link Pharmacy ,Pharmacy ,456 Ave P ,Brooklyn ,40.60960921,-73.97070637
Living Well Pharmacy ,Pharmacy ,3555 Victory Blvd ,Staten Island,40.60215453,-74.17684327
Local MD,Community Health Care/Clinic ,72-26 Grand Ave,Queens ,40.72909735,-73.89227707
Lyudmila Cavalier Physician PC,Primary Care ,115-25 Metropolitan Ave ,Queens,40.70868956,-73.83614751
"Maha Awikeh, MD, PC ",Primary Care ,326 79th St,Brooklyn ,40.6290293,-74.02810011
Mahattan Pediatric Assoicates ,Primary Care ,217 Grand St ,Manhattan ,40.71940374,-73.99577295
Maimonides Hall,Community Health Canter/Clinic,950 49th Street,Brooklyn,40.63972279,-74.00006189
Maimonides Schreiber Auditorium,Community Health Canter/Clinic,4802 10th Avenue,Brooklyn,40.63941666,-73.99814297
Manhattan Chinatown Pharmacy ,Pharmacy ,156 Canal Street ,Manhattan,40.71703057,-73.99675694
Manhattan Family Practice,Primary Care ,911 Park Ave,Manhattan,40.77656972,-73.95945597
Manhattan Medical Arts,Primary Care ,492 6th St,Manhattan,40.73681528,-73.9973126
Mannings Pharmacy Corp ,Pharmacy ,13 Elizabeth St ,Manhattan,40.71619875,-73.9976059
Marble Hill Pharmacy ,Pharmacy ,5227 Broadway Suite A ,Bronx ,40.87642571,-73.90856478
Mark B. Lew  MD,Primary Care ,2704 Glenwood Rd ,Brooklyn ,40.63410104,-73.95066506
Mass Vaccination Site - Bathgate Contract Postal Station,Community Health Canter/Clinic,4006 3rd Avenue,Bronx,40.84220106,-73.89830203
Mass Vaccination Site - Brooklyn Army Terminal,Community Health Canter/Clinic,140 58th Street,Brooklyn,40.64481279,-74.02375093
Mass Vaccination Site - Citi Field,Community Health Canter/Clinic,36-02 126th St,Queens,40.66857397,-73.8141093
Mass Vaccination Site- Yankee Stadium ,Community Health Center/Clinic ,1 E 161st St,Bronx ,40.83605555,-73.92804132
Mayflower Pharmacy ,Pharmacy ,397 Kings Highway ,Brooklyn ,40.60522352,-73.97541434
Medassure Pharmacy ,Pharmacy ,2334 Washington Ave ,Bronx ,40.85669151,-73.89225193
Medex Pharmacy ,Pharmacy ,96-02 Jamaica Ave ,Queens ,40.69505737,-73.84938889
Medicine Center Rx LLC ,Pharmacy ,92 East 167th Street ,Bronx ,40.83569133,-73.9196276
Medicine Plaza Pharmacy ,Pharmacy ,1312 Kings Highway,Brooklyn ,40.60851892,-73.95933848
Medisys Hollis Tudors,Primary Care,200-16 Hollis Avenue,Queens,40.70618987,-73.75695406
MedPack ,Pharmacy ,5923 Strickland Ave ,Brooklyn ,40.60916319,-73.91549199
MedPlus 2 Pharmacy ,Pharmacy ,133-47 Sanford Ave ,Queens ,40.75682658,-73.82943087
MedRite Urgent Care,Urgent Care,919 2nd Avenue,Manhattan,40.75443854,-73.96940269
Medrite Urgent Care,Urgent Care,1646 2nd Ave ,Manhattan ,40.7780107,-73.95178094
Medrite Urgent Care,Urgent Care,504 Myrtle Ave,Brooklyn ,40.69407242,-73.96451449
MedRite Urgent Care 42nd St,Urgent Care,521 W 42nd Street,Manhattan,40.76040414,-73.99653079
MedRite Urgent Care Court St,Urgent Care,151 Court Street,Brooklyn,40.68908357,-73.99251949
Medrite Urgent Care Park Slope ,Urgent Care,245 4th Ave,Brooklyn ,40.67703731,-73.98363633
MedRite Urgent Care Upper Manhattan,Urgent Care,177 Dyckman Street,Manhattan,40.87353233,-73.92546536
Mellor's Drug Store ,Pharmacy ,3343 Fulton Ave ,Brooklyn ,40.68451457,-73.87218488
Metro Chemist Pharmacy Inc,Pharmacy ,73-01 Metropolitan Ave ,Queens ,40.71343316,-73.87929827
Metro Community Health Center- Bronx ,Community Health Center/Clinic ,979 Cross Bronx Expressway ,Bronx ,40.83968388,-73.88298372
Metro Community Health Center- Staten Island ,Community Health Center/Clinic,2324 Forest Ave ,Staten Island ,40.62797852,-74.16722638
Metro Pharmacy ,Pharmacy ,172-17 Jamaica Ave ,Queens ,40.70865343,-73.78760333
Metrocare Pharmacy Inc. ,Pharmacy ,21-12b 36th Ave ,Queens ,40.7603216,-73.93664117
MiDoctor Urgent Care ,Urgent Care ,715 9th Ave,Manhattan ,40.76341945,-73.98961627
Midtown Gynecology ,Community Health Center/Clinic ,225 W 35th St ,Manhattan ,40.75294837,-73.99102061
Milena Pharmacy ,Pharmacy ,4407 Broadway ,Manhattan ,40.85602374,-73.9335098
Milestones Pediatrics of New York ,Primary Care ,2431 86th St ,Brooklyn ,40.5995344,-73.9882318
Mill Basin Medical ,Primary Care ,2083 E 65th St ,Brooklyn ,40.61773653,-73.91157744
Mill Basin Pharmacy ,Pharmacy ,5829 Ave T ,Brooklyn ,40.61658722,-73.91802126
Milos Medical ,Primary Care ,71-28 Cooper Ave ,Queens,40.70317812,-73.87921284
MingZhu Medical Office PC ,Primary Care ,5616 7th Ave ,Brooklyn ,40.63942642,-74.0093858
MKR Medical PC,Primary Care ,828 Utica Ave ,Brooklyn ,40.65350503,-73.93061098
Mobile Vaccine Clinic,Pop Up Bus,64-13 Broadway,Queens,40.75558441,-73.8991752
Mobile Vaccine Clinic,Pop Up Bus,39-20 Rockaway Beach Blvd,Queens,40.60627483,-73.77438684
Mobile Vaccine Clinic,Pop Up Bus,231 Central Park South,Manhattan,40.80614958,-73.95691967
Mobile Vaccine Clinic,Pop Up Bus,41-60 Kissena Blvd,Queens,40.76243584,-73.8283652
Mobile Vaccine Clinic,Pop Up Bus,202 W 231st St,Bronx,40.88843215,-73.90580513
Mobile Vaccine Clinic,Pop Up Bus,Lincoln Rd and Ocean Avenue,Brooklyn,40.66138525,-73.96291261
Mobile Vaccine Clinic,Pop Up Bus,147 W 51st St,Manhattan,40.76724507,-73.98285661
Mobile Vaccine Clinic,Pop Up Bus,368 E 149th St,Bronx,40.82165202,-73.92023163
Mobile Vaccine Clinic,Pop Up Bus,1700 Fulton Street,Brooklyn,40.68176505,-73.93182432
ModernMd Urgent Care - Jackson Heights,Urgent Care,37033 82nd St,Queens,40.75412482,-73.88507973
ModernMD Urgent Care BedStuy ,Urgent Care,1248 Fulton St,Brooklyn ,40.68102316,-73.95058851
ModernMD Urgent Care- Bushwick ,Urgent Care,366 Knickerbocker Ave ,Brooklyn ,40.70138132,-73.92139461
ModernMD Urgent Care- Crown Heights ,Urgent Care,436 Utica Ave ,Brooklyn ,40.66404447,-73.93199207
ModernMD Urgent Care- Flatbush ,Urgent Care,916 Flatbush Ave  ,Brooklyn ,40.65010752,-73.95878647
ModernMD Urgent Care- S.E Williamsburg ,Urgent Care,68 Graham Ave ,Brooklyn ,40.70403538,-73.94226917
ModernMD Urgent Care- Woodhaven ,Urgent Care,89-22 Jamaica Ave ,Queens,40.69338517,-73.85483199
ModernMD Urgent Care-City Line ,Urgent Care,1169 Liberty Ave ,Brooklyn ,40.67981217,-73.86612524
Montefiore Castle Hill Family Practice ,Community Health Center/Clinic ,2175 Westchester Ave,Bronx ,40.83496002,-73.85246817
Montefiore Comprehensive Family Care Center ,Community Health Center/Clinic ,1621 Eastchester Rd ,Bronx ,40.84609205,-73.84549283
Montefiore Comprehensive Health Care Center ,Community Health Center/Clinic ,305 161st St,Bronx ,40.82588267,-73.91692303
Montefiore Family Health Center,Community Health Center/Clinic ,1 Fordham Plaza ,Bronx ,40.86147676,-73.89015053
Montefiore Marble Hill Family Practice ,Community Health Center/Clinic ,5526 Broadway,Bronx ,40.87764178,-73.9054208
Montefiore Williamsbridge Family Practice ,Community Health Center/Clinic ,3011 Boston Road ,Bronx ,40.87071458,-73.85718463
Morami Pharmacy Inc ,Pharmacy ,144-73 Northern Blvd,Queens,40.76539054,-73.82098427
Morris Heights Health Center,Community Health Canter/Clinic,70 West Burnside Avenue,Bronx,40.86356511,-73.91134231
Morris Park Pharmacy ,Pharmacy ,`1160 East Tremont  Ave ,Bronx ,40.84058178,-73.87513288
"Mujtaba NP in Family Health, P.C.  ",Primary Care ,104-26 Roosevelt Ave ,Queens ,40.75069231,-73.86048061
MVP Pediatrics - MVP Multi Medical,Primary Care ,131-30 Merrick Blvd ,Queens ,40.67916044,-73.76075752
My Health & Me,Primary Care ,1010 Rutland Rd ,Brooklyn ,40.66329284,-73.92634372
My Health Pharmacy ,Pharmacy ,1210 Webster Ave ,Bronx,40.8325544,-73.90951997
My Unique Pharmacy Inc ,Pharmacy ,810 55th Street ,Brooklyn ,40.63881756,-74.00649937
Myrtle Drugs ,Pharmacy ,1454 Myrtle Ave ,Brooklyn ,40.69941278,-73.91661643
Myrtle Drugs ,Pharmacy ,55-18 Myrtle Ave ,Queens ,40.70034291,-73.90791117
Myrtle Meds Pharmacy ,Pharmacy ,76-17 Myrtle Ave ,Queens ,40.70365658,-73.87190177
Nate's Pharmacy ,Pharmacy ,376 Van Brunt Street ,Brooklyn ,40.67753604,-74.01308193
Nathan's Pharmacy ,Pharmacy ,1901 Bath Ave ,Brooklyn ,40.60338315,-74.00348363
"Naushin Siddiqui, M.D. PC
",Primary Care ,"7729 141st St, Queens, NY 11367",Queens,40.7213061,-73.82065327
Neergaard Pharmacy ,Pharmacy ,454 5th Ave ,Brooklyn ,40.66942254,-73.9865422
NetRx Pharmacy Inc. ,Pharmacy ,97-10 Queens Blvd ,Queens ,40.72972687,-73.8597343
New Amsterdam Drug Mart Inc. ,Pharmacy ,698 Amsterdam Ave ,Manhattan ,40.7935385,-73.97044408
New Victory Pharmacy ,Pharmacy ,926 4th Ave ,Brooklyn ,40.61893432,-74.03029507
Newtown Pharmacy ,Pharmacy ,28-04 31st St ,Queens ,40.76900989,-73.92045312
"Nie Lina MD, PC",Primary Care ,749 61st St,Brooklyn ,40.63802133,-74.01178048
NorthPoint Medical Associates,Primary Care ,1301 Southern Blvd ,Bronx ,40.83159721,-73.89196066
Norwood Pharmacy ,Pharmacy ,3138 Fulton St,Brooklyn ,40.68219176,-73.87934519
NuCare Pharmacy ,Pharmacy ,1789 1st Ave ,Manhattan ,40.78187567,-73.94662616
NYC H+H Gotham,Community Health Canter/Clinic,1920 Webster Avenue,Bronx,40.85826241,-73.90135553
NYC Health + Hospitals,Hospital-Based Health Center/Clinic,462 1st Avenue,Manhattan,40.7420914,-73.97587028
NYC Health + Hospitals,Hospital-Based Health Center/Clinic, 2601 Ocean Parkway,Brooklyn,40.58766853,-73.96514048
NYC Health + Hospitals,Hospital-Based Health Center/Clinic,70-01 Broadway,Manhattan,40.75521034,-73.89754663
NYC Health + Hospitals,Hospital-Based Health Center/Clinic,506 Lenox Avenue,Manhattan,40.81944492,-73.94129903
NYC Health + Hospitals,Hospital-Based Health Center/Clinic,1400 Pelham Parkway South,Bronx,40.86766282,-73.84564819
NYC Health + Hospitals,Hospital-Based Health Center/Clinic,451 Clarkson Avenue,Brooklyn,40.65837213,-73.94453345
NYC Health + Hospitals,Hospital-Based Health Center/Clinic,234 East 149th Street,Bronx,40.82605608,-73.92607477
NYC Health + Hospitals,Hospital-Based Health Center/Clinic,1901 1st Avenue,Manhattan,40.79138392,-73.94563751
NYC Health + Hospitals,Hospital-Based Health Center/Clinic,3424 Kossuth Avenue,Bronx,40.88990869,-73.88071789
NYC Health + Hospitals,Hospital-Based Health Center/Clinic,82-68 164th Street,Queens,40.72896846,-73.80570585
NYC Health + Hospitals,Hospital-Based Health Center/Clinic,760 Broadway,Brooklyn,40.70242017,-73.94266344
NYC Health Department,Community Health Canter/Clinic,34-33 Junction Boulevard,Queens,40.75944547,-73.87290633
NYC Health Department,Community Health Canter/Clinic,1218 Prospect Place,Brooklyn,40.67450953,-73.93608106
NYC Health Department,Community Health Canter/Clinic,295 Flatbush Ave Ext,Brooklyn,40.6933057,-73.98239457
NYC Health Department,Community Health Canter/Clinic,1309 Fulton Avenue ,Bronx,40.83870781,-73.90546734
NYC Health Department,Community Health Canter/Clinic,158 E 115th Street,Manhattan,40.80355329,-73.94323425
NYC Medical of Queens,Primary Care ,79-16 37th Ave,Queens,40.76156282,-73.88839062
NYC Vaccine Hub,Community Health Canter/Clinic,27 West 77th Street,Manhattan,40.78575845,-73.97509155
NYC Vaccine Hub,Community Health Canter/Clinic,145 Brooklyn Avenue,Brooklyn,40.67585492,-73.94377927
NYC Vaccine Hub,Community Health Canter/Clinic,445 Albee Square West,Brooklyn,40.69427155,-73.98286104
NYC Vaccine Hub,Community Health Canter/Clinic,55 Richmond Terrace ,Staten Island,40.64430042,-74.07522034
NYC Vaccine Hub,Community Health Canter/Clinic,244B Broome Street,Manhattan,40.71810134,-73.98903644
NYC Vaccine Hub,Community Health Canter/Clinic,1401 Flatbush Avenue,Brooklyn,40.63746453,-73.95137577
NYC Vaccine Hub,Community Health Canter/Clinic,119 9th Avenue ,Manhattan,40.74773302,-74.00541129
NYC Vaccine Hub,Community Health Canter/Clinic,501 Brielle Avenue,Staten Island,40.59808125,-74.1396015
NYC Vaccine Hub,Community Health Canter/Clinic,103-05 32nd Avenue,Queens,40.76533793,-73.86750121
NYC Vaccine Hub,Community Health Canter/Clinic,5-17 46th Road,Queens,40.74711019,-73.95435634
NYC Vaccine Hub,Community Health Canter/Clinic,92-24 Rockaway Boulevard,Queens,40.68626661,-73.84720774
NYC Vaccine Hub,Community Health Canter/Clinic,1310 Pennsylvania Avenue,Brooklyn,40.65159476,-73.88393424
NYC Vaccine Hub,Community Health Canter/Clinic,1300 Flushing Ave,Brooklyn,40.71011124,-73.9214855
NYC Vaccine Hub,Community Health Canter/Clinic,506 Livonia Avenue,Brooklyn,40.6663042,-73.89874554
NYC Vaccine Hub,Community Health Canter/Clinic,20 Times Square,Manhattan,40.76402115,-73.98344468
NYC Vaccine Hub,Community Health Canter/Clinic,1527 Jesup Avenue,Bronx,40.85410763,-73.91920832
NYCDocs - Primary Care Doctors,Primary Care ,1888 Westchester Ave ,Bronx ,40.83318561,-73.86185879
NYCDocs - Tremont,Primary Care ,871 E Tremont Ave ,Bronx ,40.84324218,-73.88596807
NYS Aqueduct Racetrack,Community Health Canter/Clinic,110-00 Rockaway Blvd,Queens,40.68278724,-73.83550542
NYS Bay Eden Senior Center,Community Health Canter/Clinic,1220 East 229th Street,Bronx,40.89723752,-73.84268918
NYS Medgar Evers College,Community Health Canter/Clinic,231 Crown Street,Brooklyn,40.66727056,-73.95261834
Oak Park Pharmacy ,Pharmacy ,205 Prospect Park West ,Brooklyn ,40.66123483,-73.98013655
Obilo Pediatric Associates,Primary Care ,4119 Barnes Ave,Bronx ,40.89116579,-73.85605012
Ocean Park Drugs ,Pharmacy ,17-27 Seagirt Blvd ,Queens ,40.59559795,-73.75206579
ODA Primary Healthcare Network,Community Health Center/Clinic ,74 Wallabout St ,Brooklyn,40.69973771,-73.95994668
Ohana Pharmacy Inc. ,Pharmacy ,1690 86th St,Brooklyn ,40.60942421,-74.00560595
"One Hanson Place Pediatrics, PC",Primary Care ,1 Hanson Place ,Brooklyn,40.68551689,-73.97767912
Oval Drugs ,Pharmacy ,1500 Metropolitan Ave ,Bronx ,40.83964132,-73.85885987
Pace Pediatric Practice PC,Primary Care ,1545 Atlantic Ave ,Brooklyn,40.67897536,-73.93741512
Park Plaza Pharmacy Inc. ,Pharmacy ,1773 University Ave ,Bronx ,40.85112768,-73.9156627
Park Smiles NYC,Primary Care ,1175 Park Ave,Manhattan ,40.78480057,-73.95388679
Patient Priority Medical Care,Primary Care ,88-23 178th St ,Queens,40.7116384,-73.78452346
Peace Pharmacy ,Pharmacy ,2366 University Ave ,Bronx ,40.86314355,-73.90474647
Pharmacy at the Wave,Pharmacy ,104 West End Ave ,Brooklyn ,40.57903256,-73.95353812
Pharmacy on Grand,Pharmacy ,73-33 Grand Ave ,Queens ,40.73078011,-73.88847622
Pharmacy on the Bay Street ,Pharmacy ,1209 Bay Street ,Staten Island,40.61447256,-74.06575104
PharmEx Pharmacy ,Pharmacy ,142-08 Rockaway Blvd ,Queens ,40.67445064,-73.79835355
Phillips Pharmacy ,Pharmacy ,3921 9th Ave ,Brooklyn ,40.64610118,-73.99546384
Phils Pill Pharmacy ,Pharmacy ,83-87 Woodhaven Blvd ,Queens ,40.69901127,-73.85225763
Plus Drugs ,Pharmacy ,209-31 Northern Blvd ,Queens,40.76003698,-73.7734743
Preferred Pharmacy,Community Health Canter/Clinic,1771 Broadway,Brooklyn,40.68581245,-73.9100339
Premier Health Care - Central Manhattan,Primary Care ,227 E 41st 8th ,Manhattan ,40.75047782,-73.97350254
Prime Medical Services PC,Primary Care ,1711 Ralph Ave ,Brooklyn ,40.63610649,-73.91872459
Propsect Drugs ,Pharmacy ,94 Greene Ave ,Brooklyn ,40.6870057,-73.96849333
Pure Pediatrics,Primary Care ,60B Mott Street,Manhattan ,40.71604996,-73.99817588
Q All Care Medical PC,Urgent Care,31-47 137th St ,Queens,40.76886479,-73.83070451
Qikai Yao Physician PC,Primary Care ,45-02 82nd St,Queens,40.74164307,-73.88321673
Queens Central Pharmacy Inc,Pharmacy ,116-08 Queens Blvd ,Queens ,40.7165304,-73.83346541
Queens Express Pharmacy ,Pharmacy ,34-53 Junction Blvd ,Queens ,40.75413042,-73.87229012
Queens Mall,Community Health Canter/Clinic,58-56 92nd Street ,Queens,40.73982698,-73.86946785
Queens Medical Service,Primary Care ,87-35 Britton Ave,Queens,40.74850647,-73.87878951
Queens Surgical Center,Community Health Center/Clinic,36-36 Main St,Queens,40.76284105,-73.83160301
Queens Village  Pharmacy Inc,Pharmacy ,214-44 Hillside Ave ,Queens ,40.72737565,-73.75034867
Ralph Prescriptions ,Pharmacy ,820 Wyckoff Ave ,Brooklyn ,40.6984501,-73.908392
Ram Thakur Enterprise,Pharmacy ,88-20B Van Wyck Expressway ,Queens ,40.70224429,-73.81676122
Rambam Family Health Center,Community Health Canter/Clinic,1122 Chestnut Avenue,Brooklyn,40.61749481,-73.96282476
Ramon Valez Health Care Center,Community Health Center/Clinic,754 E 151st St,Bronx ,40.81567562,-73.90601148
Randall Manor Pharmacy ,Pharmacy ,395 Forest Ave ,Staten Island,40.63187951,-74.10266679
RD Medical Doctors,Primary Care ,395 Fort Washington Ave ,Manhattan,40.848651,-73.93944224
Real Value Patients Pharmacy ,Pharmacy ,94-01 37 Ave ,Queens ,40.75176238,-73.87256623
Rego Park Medical Associates,Primary Care ,59-10 Junction Blvd ,Queens,40.73487226,-73.86537364
Remedies Pharmacy ,Pharmacy ,711 Bedford Ave ,Brooklyn ,40.7000613,-73.95696346
Rendr Care: Advanced Oncology PC,Primary Care ,139 Centre St ,Manhattan ,40.71769917,-74.00067045
Rendr Care: Advanced Oncology PC,Primary Care ,5816 Fort Hamilton Pkwy ,Brooklyn,40.63459954,-74.00492736
"Rendr Care: Cheung and Kan Medical Group, PLLC",Primary Care ,136-36 39th Ave ,Queens,40.76122501,-73.8287972
"Rendr Care: Cheung and Kan Medical Group, PLLC",Primary Care ,19 Bowery,Manhattan,40.71535281,-73.99673326
"Rendr Care: Cheung and Kan Medical Group, PLLC",Primary Care ,863 50th St,Brooklyn,40.64127889,-74.00227712
Rendr Care: Chinatown Community Medical PC,Primary Care ,128 Mott St,Manhattan,40.71921074,-73.99670953
Rendr Care: Chinatown Medical Physician PC,Primary Care ,86 Bowery ,Manhattan,40.71800264,-73.9959446
Rendr Care: Chixin Fang Medical PC,Primary Care ,730 58th St ,Brooklyn,40.63827826,-74.00999137
Rendr Care: Goodland Medical PC,Primary Care ,6309 New Utrecht Ave,Brooklyn,40.62584113,-73.99712664
Rendr Care: Hong Jia Medical P,Primary Care,42-35 Main St ,Queens,40.75486072,-73.82756367
"Rendr Care: Janlian Medical Group, LLC",Primary Care ,1508 Ave U,Brooklyn ,40.59943997,-73.95606346
"Rendr Care: Janlian Medical Group, LLC",Primary Care ,833 58th St ,Brooklyn ,40.63689771,-74.00737736
"Rendr Care: Metro True Care Medical, PC",Primary Care,139 Centre St ,Manhattan,40.71812225,-74.00083596
"Rendr Care: Metro True Care Medical, PC",Primary Care,8686 Bay Pkwy,Brooklyn,40.60078141,-73.99580433
"Rendr Care: Metro True Care Medical, PC",Primary Care,42-35 Main St,Queens,40.7553944,-73.82753894
Rendr Care: Primary Care Medicine Associates,Primary Care,38-08 Union St ,Queens,40.76181879,-73.82664307
"Rendr Care: Springsea Physician, PC",Primary Care,839 58th Street ,Brooklyn,40.63681352,-74.00701148
Rendr Care: Wendy Chung,Primary Care,4211 Kissena Blvd ,Queens,40.75752409,-73.8261899
Rendr: Dr. Helen Chen,Primary Care,136-69 39th Ave ,Queens,40.76106238,-73.82892594
RendrCare: Xueshu Zhang,Primary Care,133-47 Sanford Ave ,Queens,40.7574331,-73.82964958
Richmond University Medical Center,Hospital-Based Health Center/Clinic,355 Bard Ave,Staten Island ,40.63582884,-74.10582164
Right Care Pharmacy Inc ,Pharmacy ,1043 Liberty Ave ,Brooklyn ,40.67917268,-73.87062146
Risson Primary Care,Primary Care,3215 Ave H ,Brooklyn,40.63261829,-73.94511845
Rite Aid Pharmacy,Pharmacy ,101 Clinton St,Brooklyn ,40.69387172,-73.99287867
Rite Aid Pharmacy,Pharmacy ,102-30 Atlantic Ave ,Queens ,40.690296,-73.84175377
Rite Aid Pharmacy,Pharmacy ,1033 St. Nicholas Ave ,Manhattan ,40.83671905,-73.93991235
Rite Aid Pharmacy,Pharmacy ,109-07 101st Ave ,Queens ,40.68870753,-73.8343442
Rite Aid Pharmacy,Pharmacy ,1091 Odgen Ave ,Bronx ,40.83624125,-73.92812956
Rite Aid Pharmacy,Pharmacy ,115-10 Merrick Blvd ,Queens ,40.6902558,-73.77812697
Rite Aid Pharmacy,Pharmacy ,1154 Clarkson Ave,Brooklyn ,40.66090416,-73.92030538
Rite Aid Pharmacy,Pharmacy ,1179 East 233rd St ,Bronx ,40.88982471,-73.84318582
Rite Aid Pharmacy,Pharmacy ,122-02 Liberty Ave ,Queens ,40.68800335,-73.82169087
Rite Aid Pharmacy,Pharmacy ,144-29 Northern Blvd ,Queens ,40.76558842,-73.82229333
Rite Aid Pharmacy,Pharmacy ,1510 St. Nicholas Ave ,Manhattan ,40.85279031,-73.93128503
Rite Aid Pharmacy,Pharmacy ,1516-1518 Wetchester Ave ,Bronx ,40.82850146,-73.87935901
Rite Aid Pharmacy,Pharmacy ,1535 2nd Ave,Manhattan ,40.77464273,-73.9550968
Rite Aid Pharmacy,Pharmacy ,1540 Grand Concourse ,Bronx ,40.84259602,-73.91194946
Rite Aid Pharmacy,Pharmacy ,158-02 Union Turnpike ,Queens,40.7204272,-73.80802097
Rite Aid Pharmacy,Pharmacy ,1631-43 Pitkin Ave ,Brooklyn ,40.67002788,-73.91248802
Rite Aid Pharmacy,Pharmacy ,165-02 Baisley Blvd ,Queens ,40.67879501,-73.77731971
Rite Aid Pharmacy,Pharmacy ,1670 Bedford Ave ,Brooklyn ,40.66580475,-73.95728096
Rite Aid Pharmacy,Pharmacy ,1791 Utica Ave ,Brooklyn ,40.62943449,-73.92796523
Rite Aid Pharmacy,Pharmacy ,182 Smith St,Brooklyn ,40.68609217,-73.99184775
Rite Aid Pharmacy,Pharmacy ,1849 2nd Ave ,Manhattan ,40.78491481,-73.94769663
Rite Aid Pharmacy,Pharmacy ,185 Kings Highway ,Brooklyn ,40.60640267,-73.98433935
Rite Aid Pharmacy,Pharmacy ,188 9th Ave ,Manhattan ,40.74608854,-74.00171756
Rite Aid Pharmacy,Pharmacy ,195 8th Ave ,Manhattan ,40.74403623,-74.00016926
Rite Aid Pharmacy,Pharmacy ,1950 Fulton St,Brooklyn ,40.67860515,-73.92119657
Rite Aid Pharmacy,Pharmacy ,2002 Ave U  ,Brooklyn ,40.59998645,-73.9513038
Rite Aid Pharmacy,Pharmacy ,2063 Bartow Ave ,Bronx ,40.87042972,-73.82841353
Rite Aid Pharmacy,Pharmacy ,2064 Milll Ave ,Brooklyn ,40.61552811,-73.91433441
Rite Aid Pharmacy,Pharmacy ,210 Amsterdam Ave ,Manhattan ,40.77734101,-73.98297732
Rite Aid Pharmacy,Pharmacy ,21-25 Broadway ,Queens ,40.76548042,-73.93064756
Rite Aid Pharmacy,Pharmacy ,2155 3rd Ave,Manhattan ,40.7998742,-73.93926858
Rite Aid Pharmacy,Pharmacy ,2171 Frederick Douglass Blvd,Manhattan,40.8054844,-73.95508978
Rite Aid Pharmacy,Pharmacy ,218-35 Hempstead Ave ,Queens ,40.71465334,-73.73707877
Rite Aid Pharmacy,Pharmacy ,21b Knolls Crescent ,Bronx ,40.87916212,-73.91737937
Rite Aid Pharmacy,Pharmacy ,222-14 Linden Blvd ,Queens ,40.69445981,-73.73827573
Rite Aid Pharmacy,Pharmacy ,225 Liberty Street ,Manhattan ,40.71326647,-74.01522357
Rite Aid Pharmacy,Pharmacy ,2271 Richmond Ave ,Staten Island,40.59234733,-74.16335873
Rite Aid Pharmacy,Pharmacy ,2425-34 Eastchester Road ,Bronx ,40.86270132,-73.84306472
Rite Aid Pharmacy,Pharmacy ,245-14 Francis Lewis Blvd ,Queens,40.66514254,-73.7351022
Rite Aid Pharmacy,Pharmacy ,249 7th Ave ,Brooklyn ,40.66966749,-73.9794709
Rite Aid Pharmacy,Pharmacy ,2577 Nostrand Ave ,Brooklyn,40.6214151,-73.94553997
Rite Aid Pharmacy,Pharmacy ,26 Grand Central Terminal ,Manhattan ,40.75344718,-73.9779827
Rite Aid Pharmacy,Pharmacy ,2748 East Tremont Ave ,Bronx ,40.84265765,-73.84447396
Rite Aid Pharmacy,Pharmacy ,2819 Church Ave ,Brooklyn ,40.65116265,-73.95060458
Rite Aid Pharmacy,Pharmacy ,282 8th Ave ,Manhattan ,40.74652775,-73.99756044
Rite Aid Pharmacy,Pharmacy ,2981 Ocean Ave ,Brooklyn,40.58913996,-73.94899684
Rite Aid Pharmacy,Pharmacy ,3001 Mermaid Ave ,Brooklyn ,40.57584039,-73.99703272
Rite Aid Pharmacy,Pharmacy ,301 West 50th St,Manhattan ,40.76320034,-73.98639197
Rite Aid Pharmacy,Pharmacy ,320 Smith Street,Brooklyn ,40.68201425,-73.9947062
Rite Aid Pharmacy,Pharmacy ,32-14 31st St ,Queens ,40.76211034,-73.92633603
Rite Aid Pharmacy,Pharmacy ,32-87 Steinway St ,Queens ,40.75743169,-73.92068285
Rite Aid Pharmacy,Pharmacy ,33-01 30th Ave ,Queens ,40.76717194,-73.91938177
Rite Aid Pharmacy,Pharmacy ,344 Ave X,Brooklyn ,40.59106967,-73.97083247
Rite Aid Pharmacy,Pharmacy ,3539 Broadway ,Manhattan,40.82699576,-73.951048
Rite Aid Pharmacy,Pharmacy ,35-45 West 125th St ,Manhattan,40.8073524,-73.94365369
Rite Aid Pharmacy,Pharmacy ,3700-06 Junction Blvd ,Queens,40.75221301,-73.87078978
Rite Aid Pharmacy,Pharmacy ,3823 Nostrand Ave ,Brooklyn ,40.59145565,-73.93929924
Rite Aid Pharmacy,Pharmacy ,385 Bay Street Suite 1,Staten Island,40.63305922,-74.07515737
Rite Aid Pharmacy,Pharmacy ,4046 Broadway ,Manhattan,40.84354404,-73.93861597
Rite Aid Pharmacy,Pharmacy ,408 Grand St ,Manhattan,40.71653285,-73.98641166
Rite Aid Pharmacy,Pharmacy ,4102 Church Ave ,Brooklyn ,40.65197218,-73.93872342
Rite Aid Pharmacy,Pharmacy ,4159 White Plains Road,Bronx ,40.8927541,-73.85828124
Rite Aid Pharmacy,Pharmacy ,4188 Broadway ,Manhattan,40.84874257,-73.93761649
Rite Aid Pharmacy,Pharmacy ,43-20 Bell Blvd ,Queens ,40.76164978,-73.76991867
Rite Aid Pharmacy,Pharmacy ,43-68 Amboy Rd,Staten Island,40.54541797,-74.16064646
Rite Aid Pharmacy,Pharmacy ,46-12 Greenpoint Ave ,Queens ,40.74277095,-73.91846994
Rite Aid Pharmacy,Pharmacy ,4910 Broadway,Manhattan ,40.86799285,-73.92199519
Rite Aid Pharmacy,Pharmacy ,50-15 Roosevelt Ave,Queens,40.74456077,-73.9146152
Rite Aid Pharmacy,Pharmacy ,5102 13th Ave,Brooklyn ,40.63454068,-73.99360955
Rite Aid Pharmacy,Pharmacy ,5224 5th Ave ,Brooklyn,40.64435757,-74.012291
Rite Aid Pharmacy,Pharmacy ,534 Hudson St,Manhattan,40.73509064,-74.00600564
Rite Aid Pharmacy,Pharmacy ,537-539 East 138th St,Bronx ,40.8078595,-73.91795626
Rite Aid Pharmacy,Pharmacy ,55-60 Myrtle Ave ,Queens,40.70065018,-73.90626606
Rite Aid Pharmacy,Pharmacy ,57 East Burnside Ave ,Bronx,40.85427885,-73.90652661
Rite Aid Pharmacy,Pharmacy ,5825-35 Broadway ,Bronx,40.88624345,-73.9006638
Rite Aid Pharmacy,Pharmacy ,583 Grandview Ave,Queens,40.70966968,-73.90565458
Rite Aid Pharmacy,Pharmacy ,5901 Bay Parkway,Brooklyn,40.61777669,-73.97750297
Rite Aid Pharmacy,Pharmacy ,592 East 183rd Street,Bronx,40.85373345,-73.88958849
Rite Aid Pharmacy,Pharmacy ,60-25 Woodside Ave,Queens,40.74534883,-73.90368554
Rite Aid Pharmacy,Pharmacy ,6201-23 4th Ave ,Brooklyn ,40.63952146,-74.01978638
Rite Aid Pharmacy,Pharmacy ,6423 Ft Hamilton Pkwy ,Brooklyn ,40.63123515,-74.00861536
Rite Aid Pharmacy,Pharmacy ,650 Castle Hill ,Bronx,40.82058318,-73.84801922
Rite Aid Pharmacy,Pharmacy ,6900 4th Ave,Brooklyn ,40.63540923,-74.02405069
Rite Aid Pharmacy,Pharmacy ,7 Madsion Ave,Manhattan ,40.71271604,-73.99998826
Rite Aid Pharmacy,Pharmacy ,71-14 Austin Street ,Queens ,40.72068868,-73.84458963
Rite Aid Pharmacy,Pharmacy ,7118 3rd Ave,Brooklyn ,40.63454531,-74.02730885
Rite Aid Pharmacy,Pharmacy ,71-18 Kissena Blvd,Queens,40.72984973,-73.81565429
Rite Aid Pharmacy,Pharmacy ,741 Columbus Ave,Manhattan ,40.79419046,-73.96711703
Rite Aid Pharmacy,Pharmacy ,7501 5th Ave ,Brooklyn ,40.63000816,-74.02253193
Rite Aid Pharmacy,Pharmacy ,7812 Flatlands Ave,Brooklyn ,40.6352325,-73.91386316
Rite Aid Pharmacy,Pharmacy ,783 Manhattan Ave,Brooklyn ,40.72835842,-73.95327684
Rite Aid Pharmacy,Pharmacy ,81 1st Ave,Manhattan ,40.72647114,-73.98711767
Rite Aid Pharmacy,Pharmacy ,82-13 37th Ave,Queens ,40.75040001,-73.88432009
Rite Aid Pharmacy,Pharmacy ,8222 18th Ave,Brooklyn ,40.60980655,-74.00060304
Rite Aid Pharmacy,Pharmacy ,840 Westchester Ave,Bronx,40.82035138,-73.90130409
Rite Aid Pharmacy,Pharmacy ,85 Ave D,Manhattan ,40.72341318,-73.97670858
Rite Aid Pharmacy,Pharmacy ,85-10 Northern Blvd,Queens ,40.75646463,-73.88236273
Rite Aid Pharmacy,Pharmacy ,89-10 Jamaica Ave ,Queens,40.69326979,-73.85495293
Rite Aid Pharmacy,Pharmacy ,892 Flatbush Ave ,Brooklyn ,40.64980689,-73.95888082
Rite Aid Pharmacy,Pharmacy ,901 East Gun Hill Road ,Bronx ,40.87596517,-73.8599268
Rite Aid Pharmacy,Pharmacy ,911 Morris Park Ave,Bronx,40.8472994,-73.85910359
Rite Aid Pharmacy,Pharmacy ,9302 3rd Ave,Brooklyn ,40.61919379,-74.03339254
Rite Aid Pharmacy,Pharmacy ,950 Southern Blvd ,Bronx ,40.82284818,-73.89139631
Rite Aid Pharmacy,Pharmacy ,95-14 63rd Drive,Queens ,40.73027344,-73.86226293
Rite Aid Pharmacy,Pharmacy ,96- Halsey Street ,Brooklyn ,40.68643629,-73.91573332
Rite Aid Pharmacy,Pharmacy ,9738 Seaview Ave ,Brooklyn ,40.63500864,-73.8880952
Rite Choice Pharmacy ,Pharmacy ,1484 Fulton St ,Brooklyn ,40.68039272,-73.94179812
RiteCare Medical Office P.C,Primary Care,1966-22 Hillside Ave,Queens,40.71821487,-73.76570434
Romiran Inc Pharmacy,Pharmacy ,102-10 Metropolitan Ave ,Queens ,40.7109937,-73.85094865
"Rong Xu, MD",Primary Care,39-16 Prince St,Queens,40.75980808,-73.83218391
Roosevelt City Pharmacy ,Pharmacy ,79-18 Roosevelt Ave ,Queens ,40.74779247,-73.88604237
Roosevelt Medical Center,Primary Care,38-34 Parsons Blvd,Queens,40.76231716,-73.822492
Rosebank Pharmacy ,Pharmacy ,500 Tompkins Ave ,Staten Island,40.614053,-74.06856017
Rossi Pharmacy ,Pharmacy ,1891 Eastern Pkwy ,Brooklyn ,40.67747047,-73.90632161
Royal Care Drugs Inc,Pharmacy ,135-71 41st Ave ,Queens ,40.7600936,-73.8268555
Royal Pharamacy ,Pharmacy ,5030 Broadway 1st Fl,Manhattan,40.86962949,-73.91654123
Rx Box Pharmacy ,Pharmacy ,32655 Richmond Ave ,Staten Island,40.56041188,-74.1682361
Rx Center Pharmacy ,Pharmacy ,2325 First Ave,Manhattan ,40.79875191,-73.93427982
Rx Masters Pharmacy ,Pharmacy ,1437 Webster Ave ,Bronx ,40.8379974,-73.90701764
RX Warehouse Pharamcy Inc,Pharmacy ,7724 New Utrecht Ave ,Brooklyn ,40.61450513,-74.00093429
RxCircle Pharmacy ,Pharmacy ,5001 7th Ave ,Brooklyn ,40.64299024,-74.00589019
Ryan Health-Frederick Douglass Community Health,Community Health Canter/Clinic,2381 Frederick Douglass Boulevard,Manhattan,40.8168467,-73.95078735
S & K Warbassee Pharmacy ,Pharmacy ,499 Neptune Ave ,Brooklyn ,40.58081278,-73.9720758
S Bros Pharmacy ,Pharmacy ,176 Lee Ave ,Brooklyn ,40.70338032,-73.95651143
S.V.R.H. Pharmacy Inc ,Pharmacy ,161 Smith St,Brooklyn ,40.68710702,-73.99057303
Santa Maria Pharmacy ,Pharmacy ,255 South 2nd St ,Brooklyn,40.71219105,-73.95778089
Sedgwick Pharmacy ,Pharmacy ,3880 Sedgwick Ave ,Bronx ,40.88354733,-73.89380726
Shanti Pharmacy Corp DBA Silver Rod Drugs,Pharmacy ,5105 Church Ave ,Brooklyn ,40.6528679,-73.92932589
Sherman Pharamcy 2,Pharmacy ,58-10 Myrtle Ave ,Queens ,40.70115447,-73.90122894
Skycare Pharmacy ,Pharmacy ,85-29 Grand Ave,Queens ,40.73598749,-73.88144367
Smart Choice Pharmacy ,Pharmacy ,259 Avenue X,Brooklyn ,40.59103389,-73.97354112
Smart Shop Pharmacy ,Pharmacy ,32-17A Beach Channel Drive ,Queens ,40.59875981,-73.76631222
SmartRX Specialty Pharmacy ,Pharmacy ,1706 Lexington Ave ,Manhattan ,40.79360171,-73.94590657
Southshore Pharmacy Corp ,Pharmacy ,4020 Hylan Blvd,Staten Island,40.54221689,-74.14609991
St Johns Episcopal - Patient Express Care Center,Urgent Care,327 Beach 19th Street,Queens,40.61032341,-73.75502112
St. Jude Pharmacy ,Pharmacy ,121 St. Nicholas Ave ,Brooklyn ,40.70639098,-73.9180341
Star Drugs Inc,Pharmacy ,922 Pennsylvania Ave ,Brooklyn ,40.65554895,-73.88791523
Starret City Pharmacy ,Pharmacy ,1110 Pennsylvania Ave,Brooklyn ,40.65402763,-73.88738773
Stop & shop Pharmacy 2581 ,Pharmacy ,156-01 Cross Bay Blvd,Queens,40.66435615,-73.84075989
Stop & shop Pharmacy 2585,Pharmacy ,134-40 Springfield Blvd ,Queens ,40.68015389,-73.75556591
Stop & Shop Pharmacy 2586,Pharmacy ,625 Atlantic Ave ,Brooklyn ,40.68465612,-73.97571684
Stop & Shop Pharmacy 2587,Pharmacy ,31-06 Farrington Street,Queens,40.76971829,-73.83404148
Stop & Shop Pharmacy 2589,Pharmacy ,92-10 Atlantic Ave,Queens,40.68777997,-73.84972884
Stop & Shop Pharmacy 2591,Pharmacy ,2965 Cropsey Ave ,Brooklyn ,40.58340483,-73.98489125
Stop & Shop Pharmacy 2592,Pharmacy ,2136 Bartow Avenue ,Bronx,40.86946434,-73.82548573
Stop & Shop Pharmacy 2593,Pharmacy ,961 East 174th Street ,Bronx,40.83862769,-73.88374037
Stop & Shop Pharmacy 2595,Pharmacy ,1351 Forest Ave ,Staten Island,40.62707556,-74.13546583
Stop & Shop Pharmacy 504,Pharmacy ,691 Co-Op City Blvd ,Bronx,40.88117327,-73.82490217
Stop & Shop Pharmacy 505,Pharmacy ,1710 Ave Y,Brooklyn ,40.59046089,-73.9521491
Stop & Shop Pharmacy 509,Pharmacy ,74-17 Grand Ave,Queens ,40.73206504,-73.88779157
Stop & Shop Pharmacy 566,Pharmacy ,70-20 Rockaway Beach Blvd,Queens ,40.5908611,-73.79964933
Stop & Shop Pharmacy 581,Pharmacy ,2754 Hylan Blvd ,Staten Island,40.56469394,-74.11435693
Subhan Pharmacy Inc ,Pharmacy ,1067 Coney Island Ave ,Brooklyn,40.63225253,-73.96655427
Sun River Church Avenue Annex at Goshen Temple,Community Health Canter/Clinic,2414-18 Church Avenue,Brooklyn,40.65113483,-73.95565426
Super Health Pharmacy,Pharmacy,6390 Amboy Road,Staten Island,40.53100071,-74.21555179
Sure Drugs ,Pharmacy ,312 Ralph Ave,Brooklyn,40.67904011,-73.92161547
Suredrugs Pharmacy ,Pharmacy ,118-06 101st Ave,Queens,40.69025518,-73.82655507
SV Wellness Pharmacy ,Pharmacy ,2173C 68th St,Brooklyn ,40.61290996,-73.98326097
Tanio Pharmacy ,Pharmacy ,2403 2nd Ave ,Manhattan ,40.80247133,-73.9348509
Teba Pharmacy ,Pharmacy ,7618 5th Ave,Brooklyn,40.62905869,-74.0232508
The 90th St Pharmacy ,Pharmacy ,1262 Madison Ave ,Manhattan,40.78414986,-73.95698113
Top Value Pharmacy & Compounding ,Pharmacy ,3811 Dyre Ave ,Bronx ,40.8890763,-73.83188212
"Traymore Chemists, Inc. ",Pharmacy ,110-80 Queens Blvd ,Queens ,40.71950367,-73.83872309
Trinity Rx Corp ,Pharmacy ,75-21 Myrtle Ave,Queens ,40.70332081,-73.87316361
Truemed Pharmacy ,Pharmacy ,2282 Webster Ave,Bronx ,40.85651845,-73.8957604
Tu Quynh Pharmacy ,Pharmacy , 230 Grand St Suite A1-2,Manhattan ,40.71943221,-73.99506294
Turnpike Meds Rx Inc,Pharmacy ,179-14 Union Turnpike,Queens ,40.72724173,-73.78869709
Union Community Health Center,Community Health Canter/Clinic,260 East 188th Street,Bronx,40.87275203,-73.89654901
Union Community Health Center,Community Health Canter/Clinic,2021 Grand Concourse,Bronx,40.86577857,-73.90410211
United Pharmacy LLC,Pharmacy ,5539 Broadway,Bronx,40.87885469,-73.90547375
V&A Pharmacy ,Pharmacy ,72 Manhattan Ave,Brooklyn,40.70556139,-73.944451
Vida Sana Pharmacy ,Pharmacy ,88-22 37th Ave ,Queens,40.75107134,-73.87827662
Village Pharmacy ,Pharmacy ,12-27 150th St,Queens,40.7905429,-73.81414566
Vitality Drug & Surgical ,Pharmacy ,257-07 Union Turnpike ,Queens,40.74724949,-73.7144162
Vitalscript Pharmacy  ,Pharmacy ,83-`19 37th St,Queens,40.75068385,-73.88312063
Viva Pharmacy & Wellness,Pharmacy ,80-14 Northern Blvd ,Queens,40.75597047,-73.88669501
VLS Pharmacy Inc ,Pharmacy ,4402 5th Ave,Brooklyn ,40.64910307,-74.00703924
Walgreens/Duane Reade ,Pharmacy ,1 Union Sq South ,Manhattan ,40.73494563,-73.99032147
Walgreens/Duane Reade ,Pharmacy ,1 Whitehall St ,Manhattan ,40.70437394,-74.01286566
Walgreens/Duane Reade ,Pharmacy ,100 Broadway ,Manhattan ,40.70875515,-74.01122917
Walgreens/Duane Reade ,Pharmacy ,100 Delancey St ,Manhattan ,40.71982092,-73.98900653
Walgreens/Duane Reade ,Pharmacy ,100 W 57th Street,Manhattan ,40.76477952,-73.97785553
Walgreens/Duane Reade ,Pharmacy ,103-14 Roosevelt Ave,Queens ,40.75034255,-73.86235467
Walgreens/Duane Reade ,Pharmacy ,1040 St. Johns Place ,Brooklyn ,40.67195201,-73.94369833
Walgreens/Duane Reade ,Pharmacy ,104-25 Queens Blvd ,Queens,40.72493102,-73.84793236
Walgreens/Duane Reade ,Pharmacy ,105 Brighton Beach Ave,Brooklyn,40.57738758,-73.96789621
Walgreens/Duane Reade ,Pharmacy ,1052 1st Ave,Manhattan ,40.75911998,-73.96260769
Walgreens/Duane Reade ,Pharmacy ,106-40 Rockaway Beach Blvd ,Queens ,40.58309527,-73.82880011
Walgreens/Duane Reade ,Pharmacy ,1091 Lexington Ave,Manhattan ,40.77394644,-73.95989389
Walgreens/Duane Reade ,Pharmacy ,109-62 Francis Lewis Blvd ,Queens ,40.70664389,-73.75123305
Walgreens/Duane Reade ,Pharmacy ,110-88 Queens Blvd ,Queens ,40.71910699,-73.83817714
Walgreens/Duane Reade ,Pharmacy ,1111 3rd Ave ,Manhattan ,40.76618932,-73.96368893
Walgreens/Duane Reade ,Pharmacy ,1111 Pennsylvania Ave,Brooklyn,40.65383993,-73.8861028
Walgreens/Duane Reade ,Pharmacy ,114 Beverley Rd ,Brooklyn ,40.64355594,-73.97904179
Walgreens/Duane Reade ,Pharmacy ,116-02 Beach Channel Dr,Queens,40.58287176,-73.83853406
Walgreens/Duane Reade ,Pharmacy ,119-02 Rockaway Blvd ,Queens,40.6764274,-73.81897063
Walgreens/Duane Reade ,Pharmacy ,1191 2nd Ave,Manhattan ,40.76374944,-73.9628813
Walgreens/Duane Reade ,Pharmacy ,119-10 Liberty Ave,Queens,40.68718745,-73.82338007
Walgreens/Duane Reade ,Pharmacy ,120 Court St,Brooklyn ,40.69079594,-73.99260669
Walgreens/Duane Reade ,Pharmacy ,122 East 42nd St ,Manhattan ,40.75195285,-73.97649137
Walgreens/Duane Reade ,Pharmacy ,1227 Forest Ave ,Staten Island,40.62730334,-74.13093504
Walgreens/Duane Reade ,Pharmacy ,1231 Madison Ave,Manhattan,40.78330973,-73.95746289
Walgreens/Duane Reade ,Pharmacy ,1235 Lexington Ave,Manhattan,40.77893817,-73.95637833
Walgreens/Duane Reade ,Pharmacy ,125 3rd Ave,Manhattan,40.73434321,-73.98694462
Walgreens/Duane Reade ,Pharmacy ,1251 Ave of the Americas ,Manhattan ,40.76080078,-73.98188167
Walgreens/Duane Reade ,Pharmacy ,127-04 Guy R Brewer,Queens,40.67874261,-73.77982724
Walgreens/Duane Reade ,Pharmacy ,1281 Fulton St,Brooklyn,40.68070068,-73.95023014
Walgreens/Duane Reade ,Pharmacy ,132-50 Metropolitan Ave,Queens,40.70311728,-73.8190027
Walgreens/Duane Reade ,Pharmacy ,1328 2nd Ave ,Manhattan,40.7683589,-73.9592571
Walgreens/Duane Reade ,Pharmacy ,133 Dyckman St,Manhattan,40.86338693,-73.92538827
Walgreens/Duane Reade ,Pharmacy ,135 E 125th St,Manhattan,40.80510842,-73.93739563
Walgreens/Duane Reade ,Pharmacy ,1350 Broadway,Manhattan,40.75147236,-73.9874239
Walgreens/Duane Reade ,Pharmacy ,1352 1st Ave ,Manhattan ,40.7686955,-73.9556479
Walgreens/Duane Reade ,Pharmacy ,136-02 Roosevelt Ave,Queens ,40.76048974,-73.82986727
Walgreens/Duane Reade ,Pharmacy ,1366 Broadway ,Brooklyn ,40.69018051,-73.9217623
Walgreens/Duane Reade ,Pharmacy ,1371 Metropolitan Ave,Bronx ,40.83589393,-73.86125641
Walgreens/Duane Reade ,Pharmacy ,14-01 College Point Blvd,Queens ,40.7861062,-73.84568176
Walgreens/Duane Reade ,Pharmacy ,1409 Ave J,Brooklyn ,40.62564221,-73.96197905
Walgreens/Duane Reade ,Pharmacy ,1419 Newkirk Ave,Brooklyn,40.63585319,-73.96369932
Walgreens/Duane Reade ,Pharmacy ,1430 Broadway ,Manhattan ,40.75490067,-73.98652348
Walgreens/Duane Reade ,Pharmacy ,145 4th Ave ,Manhattan,40.73495291,-73.98994515
Walgreens/Duane Reade ,Pharmacy ,1490 Madison Ave,Manhattan ,40.79213621,-73.95144104
Walgreens/Duane Reade ,Pharmacy ,149-28 14th Ave,Queens ,40.7889837,-73.81495383
Walgreens/Duane Reade ,Pharmacy ,1498 York Ave,Manhattan,40.77211266,-73.95014737
Walgreens/Duane Reade ,Pharmacy ,1517 Cortelyou Rd ,Brooklyn,40.64196445,-73.96389375
Walgreens/Duane Reade ,Pharmacy ,1524 2nd Ave,Manhattan,40.77409754,-73.95480812
Walgreens/Duane Reade ,Pharmacy , 1532 86th St #34,Brooklyn ,40.6115636,-74.0092002
Walgreens/Duane Reade ,Pharmacy ,153-45 Cross Island Pkwy ,Queens ,40.78925528,-73.80948736
Walgreens/Duane Reade ,Pharmacy ,155 East 34th St,Manhattan ,40.74696023,-73.97882994
Walgreens/Duane Reade ,Pharmacy ,1551 Richmond Ave,Staten Island,40.6107379,-74.15974984
Walgreens/Duane Reade ,Pharmacy ,1559 Flatbush ave,Brooklyn ,40.63353225,-73.94740776
Walgreens/Duane Reade ,Pharmacy ,159-34 Jamaica Ave ,Queens ,40.70414974,-73.79916787
Walgreens/Duane Reade ,Pharmacy ,16 Court St ,Brooklyn ,40.69445359,-73.99072929
Walgreens/Duane Reade ,Pharmacy ,160-40 Cross Bay Blvd ,Queens,40.6571818,-73.83933645
Walgreens/Duane Reade ,Pharmacy ,1612 Westchester Ave,Bronx,40.82999651,-73.87524203
Walgreens/Duane Reade ,Pharmacy ,162-19 Hilllside Ave,Queens ,40.70936306,-73.79976717
Walgreens/Duane Reade ,Pharmacy ,164 Kent Ave,Brooklyn ,40.71954131,-73.96347064
Walgreens/Duane Reade ,Pharmacy ,1675 3rd Ave,Manhattan ,40.78406044,-73.9501883
Walgreens/Duane Reade ,Pharmacy ,17 John Streey,Manhattan ,40.71065244,-74.0089715
Walgreens/Duane Reade ,Pharmacy ,1710 Crosby Ave,Bronx,40.84669103,-73.830995
Walgreens/Duane Reade ,Pharmacy ,1720 Kings Highway ,Brooklyn ,40.61024256,-73.95581556
Walgreens/Duane Reade ,Pharmacy ,175-06 Hillside Ave,Queens ,40.71210024,-73.78754475
Walgreens/Duane Reade ,Pharmacy ,1759 Hylan Blvd,Staten Island,40.5871183,-74.09258831
Walgreens/Duane Reade ,Pharmacy ,180 W 20th St,Manhattan,40.74194358,-73.99704345
Walgreens/Duane Reade ,Pharmacy ,1820 Williamsbridge Road,Bronx,40.85156261,-73.85163837
Walgreens/Duane Reade ,Pharmacy ,1847 Rockaway Parkway ,Brooklyn ,40.62324462,-73.91702616
Walgreens/Duane Reade ,Pharmacy ,1889 Broadway ,Manhattan ,40.77182136,-73.982593
Walgreens/Duane Reade ,Pharmacy ,1915 3rd Ave ,Manhattan ,40.79205245,-73.94468357
Walgreens/Duane Reade ,Pharmacy ,19-23 Utopia Parkway ,Queens ,40.78062088,-73.79345713
Walgreens/Duane Reade ,Pharmacy ,193-01 Northern Blvd,Queens ,40.75872367,-73.78790034
Walgreens/Duane Reade ,Pharmacy ,194 E 2nd St ,Manhattan ,40.72289998,-73.98365152
Walgreens/Duane Reade ,Pharmacy ,2 Penn Plaza ,Manhattan ,40.75084844,-73.99244402
Walgreens/Duane Reade ,Pharmacy ,200 Water Street,Manhattan ,40.70807451,-74.00450596
Walgreens/Duane Reade ,Pharmacy ,2069 Broadway ,Manhattan,40.77943996,-73.98218673
Walgreens/Duane Reade ,Pharmacy ,210 Union Ave ,Brooklyn ,40.70741348,-73.95006936
Walgreens/Duane Reade ,Pharmacy ,2158 White Plains Rd ,Bronx,40.85594222,-73.86737831
Walgreens/Duane Reade ,Pharmacy ,219-14 Merrick Blvd ,Queens ,40.67975819,-73.74998593
Walgreens/Duane Reade ,Pharmacy ,2265 Ralph Ave,Brooklyn ,40.62321205,-73.91694033
Walgreens/Duane Reade ,Pharmacy ,2270 Clove Rd ,Staten Island,40.5997898,-74.08187622
Walgreens/Duane Reade ,Pharmacy ,2325 Flatbush Ave ,Brooklyn,40.61453997,-73.9271263
Walgreens/Duane Reade ,Pharmacy ,2431 Boston Rd,Bronx,40.86255992,-73.86716459
Walgreens/Duane Reade ,Pharmacy ,244 E 161st St,Bronx,40.82647116,-73.91854627
Walgreens/Duane Reade ,Pharmacy ,249-46 Horace Harding Expressway ,Queens ,40.76153365,-73.73097852
Walgreens/Duane Reade ,Pharmacy ,250 Bedford Ave ,Brooklyn,40.716604,-73.9599896
Walgreens/Duane Reade ,Pharmacy ,250 Broadway ,Manhattan ,40.71350915,-74.00767543
Walgreens/Duane Reade ,Pharmacy ,2504 Eastchester Rd ,Bronx ,40.86364323,-73.84321897
Walgreens/Duane Reade ,Pharmacy ,2522 Broadway,Manhattan ,40.79403204,-73.97272448
Walgreens/Duane Reade ,Pharmacy ,2535 86th St #54,Brooklyn ,40.59774302,-73.98637484
Walgreens/Duane Reade ,Pharmacy ,255-01 Union Turnpike ,Queens ,40.74652736,-73.71592825
Walgreens/Duane Reade ,Pharmacy ,2590 Coney  Island Ave ,Brooklyn ,40.59391732,-73.9610097
Walgreens/Duane Reade ,Pharmacy ,2683 Broadway ,Manhattan ,40.79941901,-73.969228
Walgreens/Duane Reade ,Pharmacy ,2750 Boston Rd ,Bronx ,40.8664845,-73.86072888
Walgreens/Duane Reade ,Pharmacy ,2760 Broadway ,Manhattan ,40.80213513,-73.9675427
Walgreens/Duane Reade ,Pharmacy ,28-58 Steinway St,Queens ,40.76494543,-73.91513606
Walgreens/Duane Reade ,Pharmacy ,2864  Broadway ,Manhattan ,40.80565376,-73.9658583
Walgreens/Duane Reade ,Pharmacy ,296 Flatbush Ave,Brooklyn ,40.67888916,-73.97344929
Walgreens/Duane Reade ,Pharmacy ,298 1st Ave,Manhattan ,40.73421813,-73.98079629
Walgreens/Duane Reade ,Pharmacy ,300 E 39th St ,Manhattan ,40.74842401,-73.97323968
Walgreens/Duane Reade ,Pharmacy ,300 W 135th St ,Manhattan ,40.81686835,-73.94677248
Walgreens/Duane Reade ,Pharmacy ,3000 Church Ave ,Brooklyn ,40.65121873,-73.94919431
Walgreens/Duane Reade ,Pharmacy ,3012 3rd Ave ,Bronx ,40.8201029,-73.91349169
Walgreens/Duane Reade ,Pharmacy ,304 Park Ave South ,Manhattan ,40.7409448,-73.9867954
Walgreens/Duane Reade ,Pharmacy ,3040 Eastchester Road,Bronx ,40.87092091,-73.84275784
Walgreens/Duane Reade ,Pharmacy ,305 Broadway ,Manhattan,40.71626636,-74.00538933
Walgreens/Duane Reade ,Pharmacy ,3082 Avenue U ,Brooklyn ,40.60189819,-73.93563757
Walgreens/Duane Reade ,Pharmacy ,3085 East Tremont Ave,Bronx ,40.83983069,-73.83583715
Walgreens/Duane Reade ,Pharmacy ,315 N End Ave ,Manhattan ,40.71750746,-74.01537535
Walgreens/Duane Reade ,Pharmacy ,3155 Amboy Road ,Staten Island,40.56555764,-74.13409179
Walgreens/Duane Reade ,Pharmacy ,32 East 170th Street ,Bronx ,40.84040804,-73.91703137
Walgreens/Duane Reade ,Pharmacy ,320 W 145th Street ,Manhattan ,40.82423044,-73.94322393
Walgreens/Duane Reade ,Pharmacy ,333 7th Ave ,Manhattan,40.66689429,-73.98168007
Walgreens/Duane Reade ,Pharmacy ,33-55 Crescent St ,Queens ,40.76207288,-73.9305049
Walgreens/Duane Reade ,Pharmacy ,3387 Broadway ,Manhattan ,40.82250041,-73.95424866
Walgreens/Duane Reade ,Pharmacy ,3480 Jerome Ave ,Bronx ,40.88236911,-73.88157776
Walgreens/Duane Reade ,Pharmacy ,350 5th Ave ,Manhattan ,40.74905312,-73.98503473
Walgreens/Duane Reade ,Pharmacy ,35-06 Broadway ,Queens ,40.69176035,-73.98718744
Walgreens/Duane Reade ,Pharmacy ,352 Greenwich St ,Manhattan ,40.71980626,-74.01078256
Walgreens/Duane Reade ,Pharmacy ,355 Knickerbocker Ave,Brooklyn ,40.70159904,-73.92156563
Walgreens/Duane Reade ,Pharmacy ,3575 Boston Road ,Bronx ,40.87965333,-73.84386558
Walgreens/Duane Reade ,Pharmacy ,3590 East Tremont Ave ,Bronx ,40.83017647,-73.82522314
Walgreens/Duane Reade ,Pharmacy ,37 Broadway ,Manhattan ,40.70695501,-74.01316394
Walgreens/Duane Reade ,Pharmacy ,37-66 82nd St,Queens ,40.74860582,-73.88412886
Walgreens/Duane Reade ,Pharmacy ,379 Myrtle Ave ,Brooklyn ,40.69424307,-73.9710098
Walgreens/Duane Reade ,Pharmacy ,380 Amsterdam Ave ,Manhattan ,40.78365493,-73.9789858
Walgreens/Duane Reade ,Pharmacy ,386 Fulton St ,Brooklyn ,40.69211828,-73.98731619
Walgreens/Duane Reade ,Pharmacy ,3901 White Plains Road ,Bronx ,40.88663267,-73.86196437
Walgreens/Duane Reade ,Pharmacy ,39-20 Bell Blvd ,Queens ,40.76504724,-73.77194204
Walgreens/Duane Reade ,Pharmacy ,4 Amsterdam Ave,Manhattan ,40.77149057,-73.98779557
Walgreens/Duane Reade ,Pharmacy ,4 Columbus Circle ,Manhattan ,40.76755456,-73.98290275
Walgreens/Duane Reade ,Pharmacy ,4 Park Ave,Manhattan ,40.74755106,-73.98189999
Walgreens/Duane Reade ,Pharmacy ,4 West 4th St ,Manhattan ,40.72856834,-73.9947553
Walgreens/Duane Reade ,Pharmacy ,40 Wall St ,Manhattan ,40.70785793,-74.00951378
Walgreens/Duane Reade ,Pharmacy ,401 E 86th Street ,Manhattan ,40.77736282,-73.94908996
Walgreens/Duane Reade ,Pharmacy ,401 Park Ave South ,Manhattan ,40.74372245,-73.98364034
Walgreens/Duane Reade ,Pharmacy ,406 East Fordham Road ,Bronx ,40.86215023,-73.89135544
Walgreens/Duane Reade ,Pharmacy ,41 East 58th Street ,Manhattan ,40.76400297,-73.97091054
Walgreens/Duane Reade ,Pharmacy ,4123 Ave D ,Brooklyn ,40.64257412,-73.93742119
Walgreens/Duane Reade ,Pharmacy ,4232 Baychester Ave,Bronx ,40.89734644,-73.84465298
Walgreens/Duane Reade ,Pharmacy ,425 Main Street ,Manhattan ,40.75953731,-73.95339927
Walgreens/Duane Reade ,Pharmacy ,43-02 Ditmars Blvd ,Queens ,40.77160627,-73.90382429
Walgreens/Duane Reade ,Pharmacy ,436 86th St,Brooklyn ,40.6228262,-74.02756433
Walgreens/Duane Reade ,Pharmacy ,44-15 Kissena Blvd ,Queens ,40.75415121,-73.82197753
Walgreens/Duane Reade ,Pharmacy ,45-02 43rd Ave,Queens,40.74571239,-73.91913674
Walgreens/Duane Reade ,Pharmacy ,455 W 37th St,Manhattan ,40.75752102,-73.9973737
Walgreens/Duane Reade ,Pharmacy ,459 Broadway ,Manhattan ,40.72160214,-74.00114043
Walgreens/Duane Reade ,Pharmacy ,460 8th Ave,Manhattan ,40.75234544,-73.9933319
Walgreens/Duane Reade ,Pharmacy ,462 5th Ave ,Brooklyn ,40.66900459,-73.98699385
Walgreens/Duane Reade ,Pharmacy ,465 2nd Ave,Manhattan ,40.74064599,-73.97990787
Walgreens/Duane Reade ,Pharmacy ,47-02 5th St,Queens ,40.74658226,-73.95639823
Walgreens/Duane Reade ,Pharmacy ,47-07 Broadway ,Queens ,40.75680156,-73.91270188
Walgreens/Duane Reade ,Pharmacy ,4714 16th Ave ,Brooklyn ,40.63234478,-73.98490644
Walgreens/Duane Reade ,Pharmacy ,485 Lexington Ave ,Manhattan ,40.75514275,-73.97372659
Walgreens/Duane Reade ,Pharmacy ,49 E 52nd St,Manhattan ,40.75958855,-73.9742229
Walgreens/Duane Reade ,Pharmacy ,49 W Fordham Rd,Bronx ,40.86378709,-73.90296214
Walgreens/Duane Reade ,Pharmacy ,4915 Flatlands Ave ,Brooklyn ,40.6269985,-73.92635416
Walgreens/Duane Reade ,Pharmacy ,5001 Church Ave ,Brooklyn ,40.65260676,-73.93005353
Walgreens/Duane Reade ,Pharmacy ,5008 5th Ave ,Brooklyn ,40.64567753,-74.0109276
Walgreens/Duane Reade ,Pharmacy ,506-528 Utica Ave ,Brooklyn ,40.66137711,-73.93173256
Walgreens/Duane Reade ,Pharmacy ,51 W 51st St,Manhattan ,40.76126761,-73.97941029
Walgreens/Duane Reade ,Pharmacy ,526 W 30th St ,Manhattan ,40.75341098,-74.00269863
Walgreens/Duane Reade ,Pharmacy ,530 5th Ave ,Manhattan ,40.75582624,-73.97944987
Walgreens/Duane Reade ,Pharmacy ,541 W 235th St,Bronx ,40.88608995,-73.90933312
Walgreens/Duane Reade ,Pharmacy ,5411 Myrtle Ave,Queens ,40.70039938,-73.91058577
Walgreens/Duane Reade ,Pharmacy ,55 Westchester Sq,Bronx ,40.84244475,-73.84324674
Walgreens/Duane Reade ,Pharmacy ,5564 Broadway ,Bronx ,40.87956051,-73.90488699
Walgreens/Duane Reade ,Pharmacy ,559 Fulton St ,Brooklyn ,40.6902564,-73.98258083
Walgreens/Duane Reade ,Pharmacy ,568 W 125th St,Manhattan ,40.81581256,-73.9579661
Walgreens/Duane Reade ,Pharmacy ,5716 Ave U,Brooklyn ,40.61367615,-73.91671556
Walgreens/Duane Reade ,Pharmacy ,585 Lexington Ave,Manhattan ,40.75778889,-73.97174403
Walgreens/Duane Reade ,Pharmacy ,58 East Fordham Rd ,Bronx,40.86284661,-73.89986237
Walgreens/Duane Reade ,Pharmacy ,58-01 Queens Blvd ,Queens ,40.74300358,-73.90712887
Walgreens/Duane Reade ,Pharmacy ,58-02 Metropolitan Ave,Queens ,40.71329064,-73.90591482
Walgreens/Duane Reade ,Pharmacy ,5822 99th St ,Queens ,40.73775145,-73.85987757
Walgreens/Duane Reade ,Pharmacy ,589 Prospect Ave ,Brooklyn ,40.65745627,-73.97750575
Walgreens/Duane Reade ,Pharmacy ,60 Spring St ,Manhattan,40.72303185,-73.997122
Walgreens/Duane Reade ,Pharmacy ,60-02 Roosevelt Ave,Queens ,40.74636575,-73.90438356
Walgreens/Duane Reade ,Pharmacy ,60-36 Myrtle Ave,Queens ,40.70128705,-73.89701185
Walgreens/Duane Reade ,Pharmacy ,609 Columbus Ave,Manhattan ,40.78917874,-73.97030089
Walgreens/Duane Reade ,Pharmacy ,6101 18th Ave ,Brooklyn ,40.62195793,-73.98766011
Walgreens/Duane Reade ,Pharmacy ,61-29 Springfield Blvd,Queens ,40.74921847,-73.75596867
Walgreens/Duane Reade ,Pharmacy ,625 8th Ave ,Manhattan ,40.75696011,-73.99095587
Walgreens/Duane Reade ,Pharmacy ,63-37 108th St,Queens ,40.73484629,-73.84987899
Walgreens/Duane Reade ,Pharmacy ,650 East Tremont ,Bronx ,40.84658167,-73.8922848
Walgreens/Duane Reade ,Pharmacy ,655 Rossville Ave ,Staten Island,40.54325291,-74.2069601
Walgreens/Duane Reade ,Pharmacy ,6628 18th Ave,Brooklyn ,40.61867719,-73.99167943
Walgreens/Duane Reade ,Pharmacy ,67 Broad St,Manhattan ,40.70564813,-74.01153377
Walgreens/Duane Reade ,Pharmacy ,691 Co-Op City Blvd ,Bronx,40.88173927,-73.82369363
Walgreens/Duane Reade ,Pharmacy ,69-62 188th St ,Queens ,40.7342529,-73.78351071
Walgreens/Duane Reade ,Pharmacy ,700 Columbus Ave,Manhattan ,40.79235598,-73.96861624
Walgreens/Duane Reade ,Pharmacy ,7001 Amboy Rd ,Staten Island,40.51695749,-74.23404087
Walgreens/Duane Reade ,Pharmacy ,7009 13th Ave ,Manhattan ,40.62299289,-74.00481914
Walgreens/Duane Reade ,Pharmacy ,711 3rd Ave,Manhattan ,40.75285596,-73.97277333
Walgreens/Duane Reade ,Pharmacy ,713 Brighton Beach Ave,Brooklyn ,40.57862372,-73.9599284
Walgreens/Duane Reade ,Pharmacy ,721 9th Ave ,Manhattan ,40.76371644,-73.98953764
Walgreens/Duane Reade ,Pharmacy ,724 Flatbush Ave,Brooklyn ,40.65595625,-73.96015587
Walgreens/Duane Reade ,Pharmacy ,73-01 37th Ave,Queens ,40.74982964,-73.89273482
Walgreens/Duane Reade ,Pharmacy ,73-21 Kissena Blvd ,Queens ,40.7274437,-73.81115596
Walgreens/Duane Reade ,Pharmacy ,750 Manhattan Ave ,Brooklyn ,40.72741775,-73.95220846
Walgreens/Duane Reade ,Pharmacy ,755 Broadway,Brooklyn ,40.70141784,-73.94156369
Walgreens/Duane Reade ,Pharmacy ,756 Myrtle Ave,Brooklyn ,40.69567935,-73.95204537
Walgreens/Duane Reade ,Pharmacy ,75-75 31st Ave,Queens ,40.76072724,-73.89156354
Walgreens/Duane Reade ,Pharmacy ,758 Arthur Kill Road ,Staten Island,40.56061409,-74.1666367
Walgreens/Duane Reade ,Pharmacy ,77 7th Ave,Manhattan ,40.7394511,-73.99918429
Walgreens/Duane Reade ,Pharmacy ,773 Lexington Ave ,Manhattan ,40.76397526,-73.96738492
Walgreens/Duane Reade ,Pharmacy ,777 Avenue of the Americas ,Manhattan ,40.74576018,-73.9916118
Walgreens/Duane Reade ,Pharmacy ,78-14 Linden Blvd ,Queens ,40.67034393,-73.85663467
Walgreens/Duane Reade ,Pharmacy ,7821 3rd Ave ,Brooklyn ,40.62922775,-74.02883237
Walgreens/Duane Reade ,Pharmacy ,8011 Eliot Ave ,Queens ,40.72621599,-73.87899353
Walgreens/Duane Reade ,Pharmacy ,82-77 Broadway ,Queens ,40.74232941,-73.88042783
Walgreens/Duane Reade ,Pharmacy ,84-20 Broadway ,Queens ,40.74000223,-73.87844329
Walgreens/Duane Reade ,Pharmacy ,84-32 Jamaica Ave,Queens,40.69330452,-73.85962889
Walgreens/Duane Reade ,Pharmacy ,852 2nd Ave ,Manhattan ,40.75296264,-73.97021504
Walgreens/Duane Reade ,Pharmacy ,866 3rd Ave,Manhattan,40.75846364,-73.9698529
Walgreens/Duane Reade ,Pharmacy ,900 8th Ave ,Manhattan ,40.76508005,-73.98461342
Walgreens/Duane Reade ,Pharmacy ,90-01 Sutphin Blvd ,Queens ,40.70358568,-73.80809566
Walgreens/Duane Reade ,Pharmacy ,91-08 Roosevelt Ave ,Queens ,40.7490991,-73.87472076
Walgreens/Duane Reade ,Pharmacy ,925 Soundview Ave ,Bronx ,40.82333523,-73.8684952
Walgreens/Duane Reade ,Pharmacy ,931 1st Ave ,Manhattan ,40.75532968,-73.96578673
Walgreens/Duane Reade ,Pharmacy ,93-12 Astoria Blvd ,Queens ,40.76354776,-73.87595414
Walgreens/Duane Reade ,Pharmacy ,9408 3rd Ave ,Brooklyn ,40.61824032,-74.03355267
Walgreens/Duane Reade ,Pharmacy ,949 3rd Ave ,Manhattan ,40.76097603,-73.96745143
Walgreens/Duane Reade ,Pharmacy ,95 Wall St ,Manhattan ,40.70535533,-74.0076587
Walgreens/Duane Reade ,Pharmacy ,95-11 63 Dr,Queens ,40.73062602,-73.8627386
Walgreens/Duane Reade ,Pharmacy ,955 Manor Rd ,Staten Island,40.60432469,-74.1203926
Walgreens/Duane Reade ,Pharmacy ,96-02 Rockaway Blvd ,Queens ,40.68096684,-73.84229689
Watsons Pharmacy ,Pharmacy ,192-21 Station Rd ,Queens ,40.76181475,-73.78927006
Webster Drugs Inc. ,Pharmacy ,753 E Tretmont Ave,Bronx ,40.84536566,-73.88898978
Well-Care Pharmacy ,Pharmacy ,397 E 167th St,Bronx ,40.83181048,-73.91085469
Wellness Pharmacy ,Pharmacy ,144 W 72nd St ,Manhattan ,40.77844921,-73.98039341
Wetside Pharmacy ,Pharmacy ,210 Ave U ,Brooklyn ,40.59897117,-73.97649604
Woodhaven Chemist Pharmacy ,,86-22 Jamaica Ave ,Queens ,40.69329787,-73.85739117
Zitomer Pharmacy Inc,Primary Care,969 Madison Ave,Manhattan ,40.77459614,-73.96287123
,,,,,
,,,,,
,,,,,
,,,,,
,,,,,
,,,,,
,,,,,
,,,,,
,,,,,
,,,,,
,,,,,
,,,,,
,,,,,
,,,,,
,,,,,
,,,,,
,,,,,
,,,,,
,,,,,
,,,,,
,,,,,
,,,,,
,,,,,
,,,,,
,,,,,
,,,,,
,,,,,
,,,,,
,,,,,
,,,,,
,,,,,
,,,,,
,,,,,
,,,,,
,,,,,
,,,,,
,,,,,
,,,,,
,,,,,
,,,,,
,,,,,
,,,,,
,,,,,
,,,,,
,,,,,
,,,,,
,,,,,
,,,,,
,,,,,
,,,,,
,,,,,
,,,,,
,,,,,
,,,,,
,,,,,
,,,,,
,,,,,
,,,,,
,,,,,
,,,,,
,,,,,
,,,,,
,,,,,
,,,,,
,,,,,
,,,,,
,,,,,
,,,,,
,,,,,
,,,,,
,,,,,
,,,,,
,,,,,
,,,,,
,,,,,
,,,,,
,,,,,
,,,,,
,,,,,
,,,,,
,,,,,
,,,,,
,,,,,
,,,,,
,,,,,
,,,,,
,,,,,
,,,,,
,,,,,
,,,,,
,,,,,
,,,,,
,,,,,
,,,,,
,,,,,
,,,,,
,,,,,
,,,,,
,,,,,
,,,,,
,,,,,
,,,,,
,,,,,
,,,,,
,,,,,
,,,,,
,,,,,
,,,,,
,,,,,
,,,,,
,,,,,
,,,,,
,,,,,
,,,,,
,,,,,
,,,,,
,,,,,
,,,,,
,,,,,
,,,,,
,,,,,
,,,,,
,,,,,
,,,,,
,,,,,
,,,,,
,,,,,
,,,,,
,,,,,
,,,,,
,,,,,
,,,,,
,,,,,
,,,,,
,,,,,
,,,,,
,,,,,
,,,,,
,,,,,
,,,,,
,,,,,
,,,,,
,,,,,
,,,,,
,,,,,
,,,,,
,,,,,
,,,,,
,,,,,
,,,,,
,,,,,
,,,,,
,,,,,
,,,,,
,,,,,
,,,,,
,,,,,
,,,,,
,,,,,
,,,,,
,,,,,
,,,,,
,,,,,
,,,,,
,,,,,
,,,,,
,,,,,
,,,,,
,,,,,
,,,,,
,,,,,
,,,,,
,,,,,
,,,,,
,,,,,
,,,,,
,,,,,
,,,,,
,,,,,
,,,,,
,,,,,
,,,,,
,,,,,
,,,,,
,,,,,
,,,,,
,,,,,
,,,,,
,,,,,
,,,,,
,,,,,
,,,,,
,,,,,
,,,,,
,,,,,
,,,,,
,,,,,
,,,,,
,,,,,
,,,,,
,,,,,
,,,,,
,,,,,
,,,,,
,,,,,
,,,,,
,,,,,
,,,,,
,,,,,
,,,,,
,,,,,
,,,,,
,,,,,
,,,,,
,,,,,
,,,,,
,,,,,
,,,,,
,,,,,
,,,,,
,,,,,
,,,,,
,,,,,
,,,,,
,,,,,
,,,,,
,,,,,
,,,,,
,,,,,
,,,,,
,,,,,
,,,,,
,,,,,
,,,,,
,,,,,
,,,,,
,,,,,
,,,,,
,,,,,
,,,,,
,,,,,
,,,,,
,,,,,
,,,,,
,,,,,
,,,,,
,,,,,
,,,,,
,,,,,
,,,,,
,,,,,
,,,,,
,,,,,
,,,,,
,,,,,
,,,,,
,,,,,
,,,,,
,,,,,
,,,,,
,,,,,
,,,,,
,,,,,
,,,,,
,,,,,
,,,,,
,,,,,
,,,,,
,,,,,
,,,,,
,,,,,
,,,,,
,,,,,
,,,,,
,,,,,
,,,,,
,,,,,
,,,,,
,,,,,
,,,,,
,,,,,
,,,,,
,,,,,
,,,,,
,,,,,
,,,,,
,,,,,
,,,,,
,,,,,
,,,,,
,,,,,
,,,,,
,,,,,
,,,,,
,,,,,
,,,,,
,,,,,
,,,,,
,,,,,
,,,,,
,,,,,
,,,,,
,,,,,
,,,,,
,,,,,
,,,,,
,,,,,
,,,,,
,,,,,
,,,,,
,,,,,
,,,,,
,,,,,
,,,,,
,,,,,
,,,,,
,,,,,
,,,,,
,,,,,
,,,,,
,,,,,
,,,,,
,,,,,
,,,,,
,,,,,
,,,,,
,,,,,
,,,,,
,,,,,
,,,,,
,,,,,
,,,,,
,,,,,
,,,,,
,,,,,
,,,,,
,,,,,
,,,,,
,,,,,
,,,,,
,,,,,
,,,,,
,,,,,
,,,,,
,,,,,
,,,,,
,,,,,
,,,,,
,,,,,
,,,,,
,,,,,
,,,,,
,,,,,
,,,,,
,,,,,
,,,,,
,,,,,
,,,,,
,,,,,
,,,,,
,,,,,
,,,,,
,,,,,
,,,,,
,,,,,
,,,,,
,,,,,
,,,,,
,,,,,
,,,,,
,,,,,
,,,,,
,,,,,
,,,,,
,,,,,
,,,,,
,,,,,
,,,,,
,,,,,
,,,,,
,,,,,
,,,,,
,,,,,
,,,,,
,,,,,
,,,,,
,,,,,
,,,,,
,,,,,
,,,,,
,,,,,
,,,,,
,,,,,
,,,,,
,,,,,
,,,,,
,,,,,
,,,,,
,,,,,
,,,,,
,,,,,
,,,,,
,,,,,
,,,,,
,,,,,
,,,,,
,,,,,
,,,,,
,,,,,
,,,,,
,,,,,
,,,,,
,,,,,
,,,,,
,,,,,
,,,,,
,,,,,
,,,,,
,,,,,
,,,,,
,,,,,
,,,,,
,,,,,
,,,,,
,,,,,
,,,,,
,,,,,
,,,,,
,,,,,
,,,,,
,,,,,
,,,,,
,,,,,
,,,,,
,,,,,
,,,,,
,,,,,
,,,,,
,,,,,
,,,,,
,,,,,
,,,,,
,,,,,
,,,,,
,,,,,
,,,,,
,,,,,
,,,,,
,,,,,
,,,,,
,,,,,
,,,,,
,,,,,
,,,,,
,,,,,
,,,,,
,,,,,
,,,,,
,,,,,
,,,,,
,,,,,
,,,,,
,,,,,
,,,,,
,,,,,
,,,,,
,,,,,
,,,,,
,,,,,
,,,,,
,,,,,
,,,,,
,,,,,
,,,,,
,,,,,
,,,,,
,,,,,
,,,,,
,,,,,
,,,,,
,,,,,
,,,,,
,,,,,
,,,,,
,,,,,
,,,,,
,,,,,
,,,,,
,,,,,
,,,,,
,,,,,
,,,,,
,,,,,
,,,,,
,,,,,
,,,,,
,,,,,
,,,,,
,,,,,
,,,,,
,,,,,
,,,,,
,,,,,
,,,,,
,,,,,
,,,,,
,,,,,
,,,,,
,,,,,
,,,,,
,,,,,
,,,,,
,,,,,
,,,,,
,,,,,
,,,,,
,,,,,
,,,,,
,,,,,
,,,,,
,,,,,
,,,,,
,,,,,
,,,,,
,,,,,
,,,,,
,,,,,
,,,,,
,,,,,
,,,,,
,,,,,
,,,,,
,,,,,
,,,,,
,,,,,
,,,,,
,,,,,
,,,,,
,,,,,
,,,,,
,,,,,
,,,,,
,,,,,
,,,,,
,,,,,
,,,,,
,,,,,
,,,,,
,,,,,
,,,,,
,,,,,
,,,,,
,,,,,
,,,,,
,,,,,
,,,,,
,,,,,
,,,,,
,,,,,
,,,,,
,,,,,
,,,,,
,,,,,
,,,,,
,,,,,
,,,,,
,,,,,
,,,,,
,,,,,
,,,,,
,,,,,
,,,,,
,,,,,
,,,,,
,,,,,
,,,,,
,,,,,
,,,,,
,,,,,
,,,,,
,,,,,
,,,,,
,,,,,
,,,,,
,,,,,
,,,,,
,,,,,
,,,,,
,,,,,
,,,,,
,,,,,
,,,,,
,,,,,
,,,,,
,,,,,
,,,,,
,,,,,
,,,,,
,,,,,
,,,,,
,,,,,
,,,,,
,,,,,
,,,,,
,,,,,
,,,,,
,,,,,
,,,,,
,,,,,
,,,,,
,,,,,
,,,,,
,,,,,
,,,,,
,,,,,
,,,,,
,,,,,
,,,,,
,,,,,
,,,,,
,,,,,
,,,,,
,,,,,
,,,,,
,,,,,
,,,,,
,,,,,
,,,,,
,,,,,
,,,,,
,,,,,
,,,,,
,,,,,
,,,,,
,,,,,
,,,,,
,,,,,
,,,,,
,,,,,
,,,,,
,,,,,
,,,,,
,,,,,
,,,,,
,,,,,
,,,,,
,,,,,
,,,,,
,,,,,
,,,,,
,,,,,
,,,,,
,,,,,
,,,,,
,,,,,
,,,,,
,,,,,
,,,,,
,,,,,
,,,,,
,,,,,
,,,,,
,,,,,
,,,,,
,,,,,
,,,,,
,,,,,
,,,,,
,,,,,
,,,,,
,,,,,
,,,,,
,,,,,
,,,,,
,,,,,
,,,,,
,,,,,
,,,,,
,,,,,
,,,,,
,,,,,
,,,,,
,,,,,
,,,,,
,,,,,
,,,,,
,,,,,
,,,,,
,,,,,
,,,,,
,,,,,
,,,,,
,,,,,
,,,,,
,,,,,
,,,,,
,,,,,
,,,,,
,,,,,
,,,,,
,,,,,
,,,,,
,,,,,
,,,,,
,,,,,
,,,,,
,,,,,
,,,,,
,,,,,
,,,,,
,,,,,
,,,,,
,,,,,
,,,,,
,,,,,
,,,,,
,,,,,
,,,,,
,,,,,
,,,,,
,,,,,
,,,,,
,,,,,
,,,,,
,,,,,
,,,,,
,,,,,
,,,,,
,,,,,
,,,,,
,,,,,
,,,,,
,,,,,
,,,,,
,,,,,
,,,,,
,,,,,
,,,,,
,,,,,
,,,,,
,,,,,
,,,,,
,,,,,
,,,,,
,,,,,
,,,,,
,,,,,
,,,,,
,,,,,
,,,,,
,,,,,
,,,,,
,,,,,
,,,,,
,,,,,
,,,,,
,,,,,
,,,,,
,,,,,
,,,,,
,,,,,
,,,,,
,,,,,
,,,,,
,,,,,
,,,,,
,,,,,
,,,,,
,,,,,
,,,,,
,,,,,
,,,,,
,,,,,
,,,,,
,,,,,
,,,,,
,,,,,
,,,,,
,,,,,
,,,,,
,,,,,
,,,,,
,,,,,
,,,,,
,,,,,
,,,,,
,,,,,
,,,,,
,,,,,
,,,,,
,,,,,
,,,,,
,,,,,
,,,,,
,,,,,
,,,,,
,,,,,
,,,,,
,,,,,
,,,,,
,,,,,
,,,,,
,,,,,
,,,,,
,,,,,
,,,,,
,,,,,
,,,,,
,,,,,
,,,,,
,,,,,
,,,,,
,,,,,
,,,,,
,,,,,
,,,,,
,,,,,
,,,,,
,,,,,
,,,,,
,,,,,
,,,,,
,,,,,
,,,,,
,,,,,
,,,,,
,,,,,
,,,,,
,,,,,
,,,,,
,,,,,
,,,,,
,,,,,
,,,,,
,,,,,
,,,,,
,,,,,
,,,,,
,,,,,
,,,,,
,,,,,
,,,,,
,,,,,
,,,,,
,,,,,
,,,,,
,,,,,
,,,,,
,,,,,
,,,,,
,,,,,
,,,,,
,,,,,
,,,,,
,,,,,
,,,,,
,,,,,
,,,,,
,,,,,
,,,,,
,,,,,
,,,,,
,,,,,
,,,,,
,,,,,
,,,,,
,,,,,
,,,,,
,,,,,
,,,,,
,,,,,
,,,,,
,,,,,
,,,,,
,,,,,
,,,,,
,,,,,
,,,,,
,,,,,
,,,,,
,,,,,
,,,,,
,,,,,
,,,,,
,,,,,
,,,,,
,,,,,
,,,,,
,,,,,
,,,,,
,,,,,
,,,,,
,,,,,
,,,,,
,,,,,
,,,,,
,,,,,
,,,,,
,,,,,
,,,,,
,,,,,
,,,,,
,,,,,
,,,,,
,,,,,
,,,,,
,,,,,
,,,,,
,,,,,
,,,,,
,,,,,
,,,,,
,,,,,
,,,,,
,,,,,
,,,,,
,,,,,
,,,,,
,,,,,
,,,,,
,,,,,
,,,,,
,,,,,
,,,,,
,,,,,
,,,,,
,,,,,
,,,,,
,,,,,
,,,,,
,,,,,
,,,,,
,,,,,
,,,,,
,,,,,
,,,,,
,,,,,
,,,,,
,,,,,
,,,,,
,,,,,
,,,,,
,,,,,
,,,,,
,,,,,
,,,,,
,,,,,
,,,,,
,,,,,
,,,,,
,,,,,
,,,,,
,,,,,
,,,,,
,,,,,
,,,,,
,,,,,
,,,,,
,,,,,
,,,,,
,,,,,
,,,,,
,,,,,
,,,,,
,,,,,
,,,,,
,,,,,
,,,,,
,,,,,
,,,,,
,,,,,
,,,,,
,,,,,
,,,,,
,,,,,
,,,,,
,,,,,
,,,,,